CB Link ID,Boro,Community Board,Latitude,Longitude,Link Installation Status,Smallest PPT,Street Address,Kiosk Bearing,Boro ID,Link Site ID,Link Smoke Tested and Activated (A),Link Installation (A),Location
LINK-000045,Brooklyn,302,40.688851,-73.980613,A - Link Live,126565,395 Flatbush Avenue,320 NW,NY-BK,bk-02-126565,1/20/17,11/13/2016,"(40.688851, -73.980613000000005)"
LINK-000067,Bronx,205,40.860215,-73.89306,A - Link Live,116218,2461 Webster Ave,108 E,NY-BX,bx-05-116218,5/25/16,05/12/2016,"(40.860214999999997, -73.893060000000006)"
LINK-000070,Bronx,207,40.862644,-73.903244,A - Link Live,119564,48 W Fordham Rd,4 N,NY-BX,bx-07-119564,9/15/16,08/13/2016,"(40.862644000000003, -73.903244000000001)"
LINK-000072,Bronx,205,40.861349,-73.898023,A - Link Live,119575,2437 Grand Concourse,100 E,NY-BX,bx-05-119575,7/19/16,07/01/2016,"(40.861348999999997, -73.898022999999995)"
LINK-000074,Bronx,205,40.861655,-73.898581,A - Link Live,119587,150 E 188St,9 N,NY-BX,bx-05-119587,5/25/16,05/12/2016,"(40.861654999999999, -73.898580999999993)"
LINK-000076,Bronx,205,40.859153,-73.898553,A - Link Live,119628,2366-2370 Grand Concourse,338 N,NY-BX,bx-05-119628,7/15/16,05/12/2016,"(40.859152999999999, -73.898553000000007)"
LINK-000092,Manhattan,105,40.765828,-73.983364,A - Link Live,122622,944 8 Avenue,335 NW,NY-MN,mn-05-122622,2008-03-16,07/19/2016,"(40.765827999999999, -73.983363999999995)"
LINK-000111,Manhattan,105,40.766175,-73.98199,A - Link Live,122522,250 West 57St,42 NE,NY-MN,mn-05-122522,7/19/16,05/26/2016,"(40.766174999999997, -73.981989999999996)"
LINK-000114,Manhattan,105,40.743204,-73.989217,A - Link Live,123647,1123 Broadway,80 E,NY-MN,mn-05-123647,2012-05-16,10/29/2016,"(40.743203999999999, -73.989216999999996)"
LINK-000116,Manhattan,105,40.744244,-73.989025,A - Link Live,108039,1149 Broadway,135 SE,NY-MN,mn-05-108039,2011-08-16,10/01/2016,"(40.744244000000002, -73.989024999999998)"
LINK-000120,Manhattan,105,40.745126,-73.988661,A - Link Live,139806,1170 Broadway,289 W,NY-MN,mn-05-139806,2011-02-16,10/15/2016,"(40.745125999999999, -73.988660999999993)"
LINK-000130,Manhattan,105,40.746624,-73.988399,A - Link Live,122180,1216 Broadway,227 SW,NY-MN,mn-05-122180,7/18/16,04/16/2016,"(40.746623999999997, -73.988399000000001)"
LINK-000141,Manhattan,105,40.749663,-73.988006,A - Link Live,122369,1293 Broadway,99 E,NY-MN,mn-05-122369,7/19/16,04/30/2016,"(40.749662999999998, -73.988005999999999)"
LINK-000146,Manhattan,105,40.75234,-73.987579,A - Link Live,122057,1375 Broadway,113 SE,NY-MN,mn-05-122057,2012-02-16,06/04/2016,"(40.752339999999997, -73.987578999999997)"
LINK-000151,Manhattan,105,40.75306,-73.987391,A - Link Live,122175,1407 Broadway,121 SE,NY-MN,mn-05-122175,10/27/16,07/23/2016,"(40.753059999999998, -73.987391000000002)"
LINK-000155,Manhattan,105,40.754494,-73.986941,A - Link Live,122169,1431 Broadway,112 E,NY-MN,mn-05-122169,8/18/16,07/23/2016,"(40.754494000000001, -73.986941000000002)"
LINK-000158,Manhattan,105,40.754846,-73.986363,A - Link Live,122171,1450 Broadway,4 N,NY-MN,mn-05-122171,8/18/16,07/23/2016,"(40.754846000000001, -73.986362999999997)"
LINK-000162,Manhattan,105,40.760413,-73.984541,A - Link Live,133361,1600 Broadway,296 NW,NY-MN,mn-05-133361,7/18/16,05/14/2016,"(40.760413, -73.984540999999993)"
LINK-000163,Manhattan,105,40.760269,-73.984867,A - Link Live,134185,1605 Broadway,147 SE,NY-MN,mn-05-134185,7/18/16,05/14/2016,"(40.760269000000001, -73.984866999999994)"
LINK-000164,Manhattan,105,40.760646,-73.98442,A - Link Live,122088,1606 Broadway,316 NW,NY-MN,mn-05-122088,7/18/16,04/30/2016,"(40.760646000000001, -73.98442)"
LINK-000165,Manhattan,105,40.760622,-73.984234,A - Link Live,133511,1606 Broadway,5 N,NY-MN,mn-05-133511,7/19/16,04/30/2016,"(40.760621999999998, -73.984234000000001)"
LINK-000166,Manhattan,105,40.76072,-73.984642,A - Link Live,134155,1611 Broadway,101 E,NY-MN,mn-05-134155,7/19/16,05/26/2016,"(40.760719999999999, -73.984641999999994)"
LINK-000168,Manhattan,105,40.760883,-73.984278,A - Link Live,133508,1626 Broadway,341 N,NY-MN,mn-05-133508,7/18/16,05/26/2016,"(40.760883, -73.984278000000003)"
LINK-000173,Manhattan,105,40.762894,-73.983284,A - Link Live,133505,1668 Broadway,33 NE,NY-MN,mn-05-133505,10/28/16,10/01/2016,"(40.762894000000003, -73.983283999999998)"
LINK-000177,Manhattan,105,40.763981,-73.982638,A - Link Live,122541,1701 Broadway,99 E,NY-MN,mn-05-122541,7/19/16,04/30/2016,"(40.763981000000001, -73.982637999999994)"
LINK-000178,Manhattan,105,40.764127,-73.98231,A - Link Live,122529,1710 Broadway,306 NW,NY-MN,mn-05-122529,7/19/16,04/16/2016,"(40.764127000000002, -73.982309999999998)"
LINK-000180,Manhattan,105,40.764676,-73.982385,A - Link Live,122532,1725 Broadway,107 E,NY-MN,mn-05-122532,7/19/16,05/14/2016,"(40.764676000000001, -73.982384999999994)"
LINK-000185,Manhattan,105,40.750087,-73.987781,A - Link Live,122775,Herald Square,277 W,NY-MN,mn-05-122775,7/18/16,04/30/2016,"(40.750087000000001, -73.987780999999998)"
LINK-000189,Manhattan,103,40.734132,-73.989421,A - Link Live,123149,145 4Th Ave,159 S,NY-MN,mn-03-123149,2011-10-16,10/22/2016,"(40.734132000000002, -73.989420999999993)"
LINK-000191,Manhattan,104,40.737545,-73.996866,A - Link Live,111683,101 West 14Th St,93 E,NY-MN,mn-04-111683,2012-02-16,09/24/2016,"(40.737544999999997, -73.996865999999997)"
LINK-000194,Manhattan,103,40.734127,-73.989779,A - Link Live,133442,145 4Th Ave,202 S,NY-MN,mn-03-133442,2011-10-16,10/22/2016,"(40.734127000000001, -73.989778999999999)"
LINK-000198,Manhattan,104,40.73808,-73.998315,A - Link Live,123535,133 West 14Th St,242 SW,NY-MN,mn-04-123535,2011-11-16,10/16/2016,"(40.738079999999997, -73.998315000000005)"
LINK-000199,Manhattan,102,40.738994,-74.000948,A - Link Live,123538,220 West 14Th St,25 NE,NY-MN,mn-02-123538,10/25/16,09/18/2016,"(40.738993999999998, -74.000947999999994)"
LINK-000202,Manhattan,102,40.738571,-73.999932,A - Link Live,123539,200 West 14Th St,334 NW,NY-MN,mn-02-123539,10/25/16,09/18/2016,"(40.738571, -73.999932000000001)"
LINK-000203,Manhattan,102,40.737805,-73.998106,A - Link Live,123547,120 West 14Th St,15 N,NY-MN,mn-02-123547,2012-09-16,09/17/2016,"(40.737805000000002, -73.998106000000007)"
LINK-000206,Manhattan,104,40.737908,-73.997919,A - Link Live,122427,125 West 14Th St,246 SW,NY-MN,mn-04-122427,2012-02-16,09/24/2016,"(40.737907999999997, -73.997918999999996)"
LINK-000223,Manhattan,103,40.733107,-73.987162,A - Link Live,123265,123 3Rd Ave,309 NW,NY-MN,mn-03-123265,1/27/16,01/15/2016,"(40.733106999999997, -73.987161999999998)"
LINK-000224,Manhattan,106,40.733694,-73.987044,A - Link Live,136486,130 3Rd Ave,135 SE,NY-MN,mn-06-136486,2002-01-16,01/29/2016,"(40.733694, -73.987043999999997)"
LINK-000225,Manhattan,106,40.73347,-73.987384,A - Link Live,123261,133 East 14Th St,197 S,NY-MN,mn-06-123261,7/19/16,07/02/2016,"(40.733469999999997, -73.987384000000006)"
LINK-000227,Manhattan,106,40.733794,-73.986675,A - Link Live,133896,141 3Rd Ave,312 NW,NY-MN,mn-06-133896,1/19/16,12/28/2015,"(40.733794000000003, -73.986675000000005)"
LINK-000230,Manhattan,106,40.734499,-73.98618,A - Link Live,133339,165 3Rd Ave,300 NW,NY-MN,mn-06-133339,1/19/16,01/08/2016,"(40.734499, -73.986180000000004)"
LINK-000231,Manhattan,106,40.742625,-73.980628,A - Link Live,121495,154 E 29Th St,1 N,NY-MN,mn-06-121495,6/24/16,05/14/2016,"(40.742624999999997, -73.980627999999996)"
LINK-000232,Manhattan,106,40.748387,-73.976353,A - Link Live,121521,155 East 38Th Street,83 E,NY-MN,mn-06-121521,2003-10-16,02/28/2016,"(40.748387000000001, -73.976353000000003)"
LINK-000233,Manhattan,106,40.74829,-73.976516,A - Link Live,136202,160 East 38Th Street,36 NE,NY-MN,mn-06-136202,3/18/16,02/06/2016,"(40.748289999999997, -73.976516000000004)"
LINK-000235,Manhattan,106,40.758276,-73.969132,A - Link Live,134118,160 East 54Th,114 SE,NY-MN,mn-06-134118,6/24/16,02/28/2016,"(40.758276000000002, -73.969132000000002)"
LINK-000240,Manhattan,106,40.739531,-73.982889,A - Link Live,121489,172 E 24Th St,7 N,NY-MN,mn-06-121489,5/17/16,04/30/2016,"(40.739530999999999, -73.982889)"
LINK-000241,Manhattan,106,40.734772,-73.986265,A - Link Live,133531,180 3Rd Ave,115 SE,NY-MN,mn-06-133531,1/27/16,01/08/2016,"(40.734772, -73.986265000000003)"
LINK-000242,Manhattan,106,40.73535,-73.98585,A - Link Live,133521,188 3Rd Ave,108 E,NY-MN,mn-06-133521,1/19/16,12/28/2015,"(40.735349999999997, -73.985849999999999)"
LINK-000243,Manhattan,106,40.735626,-73.985322,A - Link Live,123634,203 3Rd Ave,305 NW,NY-MN,mn-06-123634,1/19/16,01/08/2016,"(40.735626000000003, -73.985321999999996)"
LINK-000251,Manhattan,106,40.750729,-73.974079,A - Link Live,137072,201 East 42Nd St,229 SW,NY-MN,mn-06-137072,2003-09-16,02/07/2016,"(40.750729, -73.974079000000003)"
LINK-000252,Manhattan,106,40.760207,-73.967177,A - Link Live,134218,201 East 57Th Street,220 SW,NY-MN,mn-06-134218,5/17/16,04/23/2016,"(40.760207000000001, -73.967177000000007)"
LINK-000253,Manhattan,106,40.736214,-73.9849,A - Link Live,133527,205 3Rd Ave,301 NW,NY-MN,mn-06-133527,7/14/16,05/21/2016,"(40.736213999999997, -73.984899999999996)"
LINK-000254,Manhattan,106,40.735839,-73.985171,A - Link Live,133890,205 3Rd Ave,284 W,NY-MN,mn-06-133890,2/28/16,01/29/2016,"(40.735838999999999, -73.985170999999994)"
LINK-000256,Manhattan,106,40.736334,-73.985129,A - Link Live,133525,220 3Rd Ave,103 E,NY-MN,mn-06-133525,4/27/16,04/16/2016,"(40.736333999999999, -73.985129000000001)"
LINK-000257,Manhattan,106,40.736427,-73.984751,A - Link Live,133440,233 3Rd Ave,315 NW,NY-MN,mn-06-133440,2002-01-16,01/29/2016,"(40.736426999999999, -73.984751000000003)"
LINK-000258,Manhattan,106,40.736789,-73.984486,A - Link Live,123822,243 3Rd Ave,315 NW,NY-MN,mn-06-123822,3/16/16,01/29/2016,"(40.736789000000002, -73.984486000000004)"
LINK-000264,Manhattan,106,40.739528,-73.982489,A - Link Live,121488,323 3Rd Ave,340 N,NY-MN,mn-06-121488,2012-05-16,10/29/2016,"(40.739528, -73.982489000000001)"
LINK-000266,Manhattan,106,40.740041,-73.982424,A - Link Live,121501,336 3rd Ave,109 E,NY-MN,mn-06-121501,2002-01-16,01/29/2016,"(40.740040999999998, -73.982423999999995)"
LINK-000267,Manhattan,106,40.739964,-73.982043,A - Link Live,103457,337 3Rd Ave On E25Th St,21 N,NY-MN,mn-06-103457,7/13/16,07/02/2016,"(40.739964000000001, -73.982043000000004)"
LINK-000269,Manhattan,106,40.740246,-73.982383,A - Link Live,138462,340 3Rd Ave,209 SW,NY-MN,mn-06-138462,5/17/16,04/23/2016,"(40.740245999999999, -73.982382999999999)"
LINK-000272,Manhattan,106,40.740573,-73.981729,A - Link Live,121539,355 3Rd Ave,300 NW,NY-MN,mn-06-121539,1/26/16,01/15/2016,"(40.740572999999998, -73.981729000000001)"
LINK-000273,Manhattan,106,40.740775,-73.981576,A - Link Live,121499,359 3Rd Ave,315 NW,NY-MN,mn-06-121499,1/26/16,01/15/2016,"(40.740774999999999, -73.981576000000004)"
LINK-000276,Manhattan,106,40.741169,-73.981297,A - Link Live,121498,371 3Rd Ave,332 NW,NY-MN,mn-06-121498,2002-01-16,01/29/2016,"(40.741168999999999, -73.981296999999998)"
LINK-000278,Manhattan,106,40.742007,-73.98068,A - Link Live,121496,395 3Rd Ave,304 NW,NY-MN,mn-06-121496,5/17/16,04/23/2016,"(40.742007000000001, -73.980680000000007)"
LINK-000284,Manhattan,106,40.743093,-73.979813,A - Link Live,121506,429 3Rd Ave,9 N,NY-MN,mn-06-121506,6/24/16,05/21/2016,"(40.743093000000002, -73.979812999999993)"
LINK-000286,Manhattan,106,40.743954,-73.979652,A - Link Live,121505,450 3Rd Ave,179 S,NY-MN,mn-06-121505,5/17/16,04/23/2016,"(40.743954000000002, -73.979652000000002)"
LINK-000287,Manhattan,106,40.743876,-73.979316,A - Link Live,133465,451 3Rd Ave,291 W,NY-MN,mn-06-133465,1/27/16,01/15/2016,"(40.743876, -73.979315999999997)"
LINK-000292,Manhattan,106,40.745116,-73.978416,A - Link Live,121502,489 3Rd Ave,328 NW,NY-MN,mn-06-121502,2/19/16,02/06/2016,"(40.745116000000003, -73.978415999999996)"
LINK-000297,Manhattan,106,40.746449,-73.977444,A - Link Live,121513,525 3Rd Ave,348 N,NY-MN,mn-06-121513,2/19/16,02/06/2016,"(40.746448999999998, -73.977444000000006)"
LINK-000298,Manhattan,106,40.746542,-73.977695,A - Link Live,121512,528 3Rd Ave,101 E,NY-MN,mn-06-121512,1/27/16,01/15/2016,"(40.746541999999998, -73.977694999999997)"
LINK-000302,Manhattan,106,40.747672,-73.976965,A - Link Live,138165,558 East 37Th St,6 N,NY-MN,mn-06-138165,6/24/16,05/14/2016,"(40.747672000000001, -73.976965000000007)"
LINK-000303,Manhattan,106,40.74779,-73.976782,A - Link Live,121522,560 3Rd Ave,139 SE,NY-MN,mn-06-121522,3/21/16,02/06/2016,"(40.747790000000002, -73.976782)"
LINK-000304,Manhattan,106,40.748289,-73.976105,A - Link Live,121352,581B 3Rd Ave,335 NW,NY-MN,mn-06-121352,2/19/16,02/06/2016,"(40.748289, -73.976105000000004)"
LINK-000306,Manhattan,106,40.748822,-73.976034,A - Link Live,121519,596 3Rd Ave,153 SE,NY-MN,mn-06-121519,4/25/16,03/24/2016,"(40.748821999999997, -73.976033999999999)"
LINK-000308,Manhattan,106,40.748732,-73.97536,A - Link Live,138030,605 3Rd Ave,238 SW,NY-MN,mn-06-138030,2007-01-16,05/14/2016,"(40.748731999999997, -73.975359999999995)"
LINK-000309,Manhattan,106,40.749339,-73.975188,A - Link Live,121360,605 3Rd Ave,5 N,NY-MN,mn-06-121360,10/26/16,09/17/2016,"(40.749338999999999, -73.975188000000003)"
LINK-000310,Manhattan,106,40.748914,-73.975648,A - Link Live,121364,605 3Rd Ave,336 NW,NY-MN,mn-06-121364,2003-07-16,02/06/2016,"(40.748913999999999, -73.975648000000007)"
LINK-000313,Manhattan,106,40.750156,-73.974741,A - Link Live,121527,639 3Rd Ave,326 NW,NY-MN,mn-06-121527,2007-01-16,06/11/2016,"(40.750155999999997, -73.974740999999995)"
LINK-000315,Manhattan,106,40.750389,-73.974858,A - Link Live,137977,640 3Rd Ave,106 E,NY-MN,mn-06-137977,2/29/16,02/07/2016,"(40.750388999999998, -73.974857999999998)"
LINK-000316,Manhattan,106,40.75096,-73.974468,A - Link Live,121362,666 3Rd Ave,123 SE,NY-MN,mn-06-121362,2/29/16,02/07/2016,"(40.750959999999999, -73.974468000000002)"
LINK-000317,Manhattan,106,40.751406,-73.974143,A - Link Live,121536,666 3Rd Ave,70 E,NY-MN,mn-06-121536,2/28/16,02/07/2016,"(40.751406000000003, -73.974142999999998)"
LINK-000320,Manhattan,106,40.751497,-73.973765,A - Link Live,121535,685 3Rd Ave,317 NW,NY-MN,mn-06-121535,7/21/16,07/19/2016,"(40.751497000000001, -73.973765)"
LINK-000327,Manhattan,106,40.752666,-73.972842,A - Link Live,121358,721 3Rd Ave E45St,214 SW,NY-MN,mn-06-121358,1/27/16,01/08/2016,"(40.752665999999998, -73.972842)"
LINK-000328,Manhattan,106,40.753196,-73.972445,A - Link Live,121370,733 3Rd Ave,17 N,NY-MN,mn-06-121370,2/19/16,02/07/2016,"(40.753196000000003, -73.972444999999993)"
LINK-000331,Manhattan,106,40.753899,-73.972326,A - Link Live,121816,750 3Rd Ave,78 E,NY-MN,mn-06-121816,2/22/16,02/07/2016,"(40.753898999999997, -73.972325999999995)"
LINK-000333,Manhattan,106,40.754092,-73.97218,A - Link Live,133473,760 3Rd Ave,107 E,NY-MN,mn-06-133473,2/22/16,02/08/2016,"(40.754092, -73.972179999999994)"
LINK-000334,Manhattan,106,40.754513,-73.971879,A - Link Live,121813,768 3Rd Ave,100 E,NY-MN,mn-06-121813,2/28/16,02/08/2016,"(40.754513000000003, -73.971879000000001)"
LINK-000335,Manhattan,106,40.75523,-73.971024,A - Link Live,121824,797 3Rd Ave,316 NW,NY-MN,mn-06-121824,2003-08-16,02/08/2016,"(40.755229999999997, -73.971024)"
LINK-000336,Manhattan,106,40.755874,-73.971032,A - Link Live,121820,800 3Rd Ave,2 N,NY-MN,mn-06-121820,6/24/16,05/14/2016,"(40.755873999999999, -73.971031999999994)"
LINK-000337,Manhattan,106,40.755362,-73.971265,A - Link Live,121822,800 3Rd Ave,102 E,NY-MN,mn-06-121822,2003-08-16,02/08/2016,"(40.755361999999998, -73.971265000000002)"
LINK-000338,Manhattan,106,40.756324,-73.970145,A - Link Live,121831,835 3Rd Ave,109 E,NY-MN,mn-06-121831,5/20/16,04/30/2016,"(40.756323999999999, -73.970145000000002)"
LINK-000339,Manhattan,106,40.756503,-73.970107,A - Link Live,133472,845 3Rd Ave,324 NW,NY-MN,mn-06-133472,2003-08-16,02/08/2016,"(40.756503000000002, -73.970106999999999)"
LINK-000340,Manhattan,106,40.75691,-73.969813,A - Link Live,133477,845 3Rd Avenue,244 SW,NY-MN,mn-06-133477,3/28/16,03/18/2016,"(40.756909999999998, -73.969813000000002)"
LINK-000349,Manhattan,106,40.758518,-73.968987,A - Link Live,135879,900 3Rd Ave,87 E,NY-MN,mn-06-135879,4/15/16,02/15/2016,"(40.758518000000002, -73.968986999999998)"
LINK-000350,Manhattan,106,40.758993,-73.968727,A - Link Live,121842,906 3Rd Ave,1 N,NY-MN,mn-06-121842,2007-01-16,06/04/2016,"(40.758992999999997, -73.968727000000001)"
LINK-000351,Manhattan,106,40.758397,-73.968709,A - Link Live,121836,909 3Rd Avenue,149 SE,NY-MN,mn-06-121836,3/18/16,02/28/2016,"(40.758397000000002, -73.968709000000004)"
LINK-000352,Manhattan,106,40.758817,-73.96841,A - Link Live,121854,909 3Rd Avenue,313 NW,NY-MN,mn-06-121854,3/15/16,02/28/2016,"(40.758817000000001, -73.968410000000006)"
LINK-000355,Manhattan,106,40.75961,-73.968242,A - Link Live,121850,930 3Rd Ave,12 N,NY-MN,mn-06-121850,7/19/16,07/02/2016,"(40.759610000000002, -73.968242000000004)"
LINK-000357,Manhattan,106,40.759756,-73.968048,A - Link Live,136181,936 3Rd Ave,96 E,NY-MN,mn-06-136181,3/15/16,02/28/2016,"(40.759756000000003, -73.968047999999996)"
LINK-000359,Manhattan,106,40.760003,-73.967592,A - Link Live,133436,939 3Rd Avenue,309 NW,NY-MN,mn-06-133436,7/19/16,02/27/2016,"(40.760002999999998, -73.967591999999996)"
LINK-000360,Manhattan,106,40.759631,-73.967826,A - Link Live,121849,949 3Rd Avenue,325 NW,NY-MN,mn-06-121849,3/24/16,02/28/2016,"(40.759630999999999, -73.967826000000002)"
LINK-000361,Manhattan,106,40.760136,-73.967777,A - Link Live,121733,950 3Rd Ave,106 E,NY-MN,mn-06-121733,3/18/16,02/27/2016,"(40.760136000000003, -73.967776999999998)"
LINK-000362,Manhattan,106,40.760346,-73.967303,A - Link Live,121857,953 3Rd Avenue,317 NW,NY-MN,mn-06-121857,6/27/16,06/04/2016,"(40.760345999999998, -73.967303000000001)"
LINK-000363,Manhattan,106,40.760462,-73.967551,A - Link Live,138438,954 3Rd Ave,146 SE,NY-MN,mn-06-138438,3/18/16,02/27/2016,"(40.760461999999997, -73.967551)"
LINK-000364,Manhattan,106,40.760651,-73.967084,A - Link Live,133481,969 3Rd Ave,337 NW,NY-MN,mn-06-133481,9/28/16,08/13/2016,"(40.760651000000003, -73.967084)"
LINK-000366,Manhattan,106,40.761086,-73.967078,A - Link Live,133433,974 3Rd Ave,26 NE,NY-MN,mn-06-133433,9/28/16,08/13/2016,"(40.761085999999999, -73.967078000000001)"
LINK-000369,Manhattan,108,40.761604,-73.966388,A - Link Live,121734,991 3Rd Ave,44 NE,NY-MN,mn-08-121734,3/29/16,02/27/2016,"(40.761603999999998, -73.966387999999995)"
LINK-000447,Manhattan,102,40.739442,-74.002597,A - Link Live,128511,74 8 AVENUE,292 W,NY-MN,mn-02-128511,4/15/16,03/11/2016,"(40.739441999999997, -74.002596999999994)"
LINK-000453,Manhattan,104,40.742297,-74.00094,A - Link Live,108537,159 8 Avenue,357 N,NY-MN,mn-04-108537,2004-07-16,03/18/2016,"(40.742297000000001, -74.00094)"
LINK-000458,Manhattan,105,40.767271,-73.982247,A - Link Live,122628,1775 Broadway,12 N,NY-MN,mn-05-122628,3/30/16,03/10/2016,"(40.767271000000001, -73.982247000000001)"
LINK-000462,Manhattan,104,40.743582,-73.999902,A - Link Live,123508,199 8 Avenue,43 NE,NY-MN,mn-04-123508,2004-07-16,03/18/2016,"(40.743582000000004, -73.999902000000006)"
LINK-000464,Manhattan,104,40.744263,-73.999405,A - Link Live,107977,221 8 Avenue,76 E,NY-MN,mn-04-107977,2004-06-16,03/16/2016,"(40.744262999999997, -73.999404999999996)"
LINK-000465,Manhattan,104,40.744403,-73.998993,A - Link Live,123501,232 8 Avenue,318 NW,NY-MN,mn-04-123501,2004-07-16,03/11/2016,"(40.744402999999998, -73.998992999999999)"
LINK-000466,Manhattan,104,40.744589,-73.999171,A - Link Live,108002,233 8 Avenue,60 NE,NY-MN,mn-04-108002,2004-07-16,03/16/2016,"(40.744588999999998, -73.999171000000004)"
LINK-000468,Manhattan,104,40.74475,-73.998736,A - Link Live,108509,238 8 Avenue,309 NW,NY-MN,mn-04-108509,2004-07-16,03/16/2016,"(40.744750000000003, -73.998735999999994)"
LINK-000469,Manhattan,105,40.747905,-73.996434,A - Link Live,137326,243 West 27Th St,327 NW,NY-MN,mn-05-137326,2007-07-16,06/04/2016,"(40.747905000000003, -73.996433999999994)"
LINK-000472,Manhattan,105,40.763424,-73.985061,A - Link Live,139276,260 West 52St,19 N,NY-MN,mn-05-139276,2004-07-16,03/18/2016,"(40.763424000000001, -73.985061000000002)"
LINK-000473,Manhattan,104,40.745445,-73.998618,A - Link Live,123646,261 West 23St,199 S,NY-MN,mn-04-123646,6/24/16,05/25/2016,"(40.745444999999997, -73.998617999999993)"
LINK-000475,Manhattan,105,40.757544,-73.989409,A - Link Live,107818,670 8 AVENUE,321 NW,NY-MN,mn-05-107818,2004-06-16,03/12/2016,"(40.757544000000003, -73.989408999999995)"
LINK-000480,Manhattan,105,40.757753,-73.989252,A - Link Live,121354,270 West 43St,326 NW,NY-MN,mn-05-121354,2004-06-16,03/11/2016,"(40.757753000000001, -73.989251999999993)"
LINK-000483,Manhattan,104,40.745929,-73.997753,A - Link Live,139167,282 8 Avenue,245 SW,NY-MN,mn-04-139167,2004-07-16,03/16/2016,"(40.745928999999997, -73.997753000000003)"
LINK-000484,Manhattan,104,40.766642,-73.983101,A - Link Live,122503,300 West 57Th St,98 E,NY-MN,mn-04-122503,2007-07-16,03/10/2016,"(40.766641999999997, -73.983101000000005)"
LINK-000486,Manhattan,104,40.766947,-73.98315,A - Link Live,133373,301 West 57Th St,200 S,NY-MN,mn-04-133373,7/21/16,07/19/2016,"(40.766947000000002, -73.983149999999995)"
LINK-000487,Manhattan,104,40.766964,-73.982855,A - Link Live,122621,302 West 57Th St,118 SE,NY-MN,mn-04-122621,7/21/16,07/19/2016,"(40.766964000000002, -73.982855000000001)"
LINK-000489,Manhattan,104,40.754138,-73.992341,A - Link Live,122567,302 West 37St,7 N,NY-MN,mn-04-122567,4/27/16,03/10/2016,"(40.754137999999998, -73.992340999999996)"
LINK-000491,Manhattan,104,40.763057,-73.985826,A - Link Live,122605,308 West 51St,182 S,NY-MN,mn-04-122605,10/26/16,10/15/2016,"(40.763057000000003, -73.985826000000003)"
LINK-000493,Manhattan,104,40.747381,-73.997136,A - Link Live,123656,327 8 Avenue,104 E,NY-MN,mn-04-123656,2005-12-16,04/26/2016,"(40.747380999999997, -73.997135999999998)"
LINK-000496,Manhattan,105,40.749122,-73.995553,A - Link Live,136213,382 8 Avenue,344 N,NY-MN,mn-05-136213,2004-07-16,03/18/2016,"(40.749122, -73.995553000000001)"
LINK-000498,Manhattan,104,40.767363,-73.982576,A - Link Live,144139,4 Columbus Circle,126 SE,NY-MN,mn-04-144139,2008-03-16,07/20/2016,"(40.767363000000003, -73.982575999999995)"
LINK-000499,Manhattan,105,40.749537,-73.995245,A - Link Live,122061,400 8 Avenue,325 NW,NY-MN,mn-05-122061,10/14/16,08/11/2016,"(40.749536999999997, -73.995244999999997)"
LINK-000501,Manhattan,104,40.749828,-73.995525,A - Link Live,108137,403 8Th Av,213 SW,NY-MN,mn-04-108137,2005-05-16,04/19/2016,"(40.749828000000001, -73.995525000000001)"
LINK-000503,Manhattan,104,40.75023,-73.995059,A - Link Live,122691,413 8 Avenue,37 NE,NY-MN,mn-04-122691,2004-07-16,03/18/2016,"(40.750230000000002, -73.995058999999998)"
LINK-000505,Manhattan,105,40.752709,-73.992756,A - Link Live,108471,494 8 Avenue,13 N,NY-MN,mn-05-108471,5/17/16,04/26/2016,"(40.752709000000003, -73.992756)"
LINK-000508,Manhattan,105,40.752949,-73.992762,A - Link Live,122305,500 8 Avenue,310 NW,NY-MN,mn-05-122305,2005-12-16,04/26/2016,"(40.752949000000001, -73.992761999999999)"
LINK-000511,Manhattan,104,40.75343,-73.992731,A - Link Live,122068,519 8 Avenue,28 NE,NY-MN,mn-04-122068,2004-12-16,03/24/2016,"(40.753430000000002, -73.992731000000006)"
LINK-000513,Manhattan,104,40.753643,-73.992565,A - Link Live,108109,523 8 Avenue,100 E,NY-MN,mn-04-108109,2004-12-16,03/24/2016,"(40.753642999999997, -73.992564999999999)"
LINK-000516,Manhattan,105,40.754171,-73.991871,A - Link Live,108433,550 8 Avenue,334 NW,NY-MN,mn-05-108433,2004-06-16,03/12/2016,"(40.754170999999999, -73.991871000000003)"
LINK-000518,Manhattan,104,40.754668,-73.991821,A - Link Live,122565,557 8 Avenue,125 SE,NY-MN,mn-04-122565,2005-12-16,04/30/2016,"(40.754668000000002, -73.991821000000002)"
LINK-000522,Manhattan,104,40.755283,-73.991376,A - Link Live,122078,589 8 Avenue,78 E,NY-MN,mn-04-122078,2004-11-16,03/06/2016,"(40.755282999999999, -73.991376000000002)"
LINK-000524,Manhattan,104,40.7555,-73.991425,A - Link Live,136982,601 8 Avenue,203 S,NY-MN,mn-04-136982,2004-11-16,03/19/2016,"(40.755499999999998, -73.991425000000007)"
LINK-000525,Manhattan,104,40.755879,-73.990935,A - Link Live,122075,615 8 Avenue,71 E,NY-MN,mn-04-122075,2004-11-16,03/12/2016,"(40.755879, -73.990934999999993)"
LINK-000527,Manhattan,104,40.758668,-73.988905,A - Link Live,142001,701 8 Avenue,85 E,NY-MN,mn-04-142001,2004-11-16,03/11/2016,"(40.758668, -73.988905000000003)"
LINK-000528,Manhattan,104,40.758832,-73.988782,A - Link Live,108485,705 8 Avenue,35 NE,NY-MN,mn-04-108485,2004-11-16,03/11/2016,"(40.758831999999998, -73.988782)"
LINK-000529,Manhattan,104,40.759109,-73.988585,A - Link Live,122583,713 8 Avenue,57 NE,NY-MN,mn-04-122583,2004-11-16,03/11/2016,"(40.759109000000002, -73.988585)"
LINK-000531,Manhattan,105,40.759221,-73.988186,A - Link Live,122092,724 8 Avenue,310 NW,NY-MN,mn-05-122092,2004-06-16,03/12/2016,"(40.759220999999997, -73.988185999999999)"
LINK-000532,Manhattan,102,40.739672,-74.002748,A - Link Live,123540,75 8 Avenue,195 S,NY-MN,mn-02-123540,4/15/16,03/11/2016,"(40.739671999999999, -74.002747999999997)"
LINK-000533,Manhattan,104,40.76107,-73.987254,A - Link Live,108148,787 8 Avenue,28 NE,NY-MN,mn-04-108148,4/15/16,03/06/2016,"(40.761069999999997, -73.987253999999993)"
LINK-000535,Manhattan,105,40.761094,-73.986828,A - Link Live,122586,790 8 Avenue,298 NW,NY-MN,mn-05-122586,2004-12-16,03/24/2016,"(40.761094, -73.986828000000003)"
LINK-000537,Manhattan,104,40.739846,-74.002305,A - Link Live,122299,80 8 Avenue,324 NW,NY-MN,mn-04-122299,2004-07-16,03/29/2016,"(40.739846, -74.002305000000007)"
LINK-000538,Manhattan,104,40.739722,-74.002214,A - Link Live,123541,80 8 Avenue,286 W,NY-MN,mn-04-123541,2004-07-16,03/11/2016,"(40.739722, -74.002213999999995)"
LINK-000539,Manhattan,104,40.762247,-73.986295,A - Link Live,122595,825 8 Avenue,69 E,NY-MN,mn-04-122595,4/27/16,03/06/2016,"(40.762247000000002, -73.986294999999998)"
LINK-000540,Manhattan,105,40.762151,-73.986052,A - Link Live,139462,828 8 Avenue,267 W,NY-MN,mn-05-139462,2004-06-16,03/06/2016,"(40.762151000000003, -73.986052000000001)"
LINK-000541,Manhattan,105,40.762331,-73.985923,A - Link Live,122593,830 8 Avenue,321 NW,NY-MN,mn-05-122593,4/27/16,04/16/2016,"(40.762331000000003, -73.985923)"
LINK-000549,Manhattan,104,40.764338,-73.984767,A - Link Live,122620,891 8 Avenue,22 NE,NY-MN,mn-04-122620,4/27/16,04/16/2016,"(40.764338000000002, -73.984767000000005)"
LINK-000550,Manhattan,105,40.764646,-73.984229,A - Link Live,122615,900 8 Avenue,308 NW,NY-MN,mn-05-122615,2004-01-16,03/18/2016,"(40.764645999999999, -73.984228999999999)"
LINK-000551,Manhattan,105,40.764212,-73.984544,A - Link Live,139461,900 8 Avenue,286 W,NY-MN,mn-05-139461,5/26/16,04/30/2016,"(40.764212000000001, -73.984544)"
LINK-000552,Manhattan,104,40.764744,-73.98447,A - Link Live,139460,907 8 Avenue,99 E,NY-MN,mn-04-139460,4/15/16,03/10/2016,"(40.764744, -73.984470000000002)"
LINK-000553,Manhattan,105,40.764823,-73.984099,A - Link Live,122619,910 8 Avenue,328 NW,NY-MN,mn-05-122619,3/30/16,03/10/2016,"(40.764823, -73.984099000000001)"
LINK-000554,Manhattan,104,40.764934,-73.984336,A - Link Live,122616,911 8 Avenue,88 E,NY-MN,mn-04-122616,4/15/16,03/06/2016,"(40.764933999999997, -73.984335999999999)"
LINK-000555,Manhattan,105,40.765522,-73.983593,A - Link Live,122627,932 8 Avenue,285 W,NY-MN,mn-05-122627,2004-07-16,03/18/2016,"(40.765521999999997, -73.983592999999999)"
LINK-000556,Manhattan,104,40.765604,-73.983853,A - Link Live,122625,933 8 Avenue,128 SE,NY-MN,mn-04-122625,2004-04-16,03/18/2016,"(40.765604000000003, -73.983852999999996)"
LINK-000558,Manhattan,104,40.766012,-73.983549,A - Link Live,122623,947 8 Avenue,221 SW,NY-MN,mn-04-122623,2007-07-16,03/10/2016,"(40.766012000000003, -73.983548999999996)"
LINK-000560,Manhattan,104,40.760569,-73.987529,A - Link Live,139205,771 8 Avenue,49 NE,NY-MN,mn-04-139205,4/15/16,03/06/2016,"(40.760568999999997, -73.987528999999995)"
LINK-000562,Manhattan,104,40.759748,-73.988118,A - Link Live,122579,300 West 46Th St,90 E,NY-MN,mn-04-122579,4/15/16,03/11/2016,"(40.759748000000002, -73.988118)"
LINK-000563,Manhattan,104,40.762432,-73.986159,A - Link Live,142000,301 8 Avenue,88 E,NY-MN,mn-04-142000,6/22/16,05/14/2016,"(40.762431999999997, -73.986159000000001)"
LINK-000566,Manhattan,105,40.760895,-73.986836,A - Link Live,142002,782 8 Avenue,28 NE,NY-MN,mn-05-142002,2004-06-16,03/12/2016,"(40.760894999999998, -73.986835999999997)"
LINK-000567,Manhattan,104,40.761816,-73.986606,A - Link Live,122598,825 8 Avenue,168 S,NY-MN,mn-04-122598,4/27/16,03/18/2016,"(40.761816000000003, -73.986605999999995)"
LINK-000568,Manhattan,104,40.759938,-73.987975,A - Link Live,122580,739 8 Avenue,56 NE,NY-MN,mn-04-122580,7/20/16,07/13/2016,"(40.759937999999998, -73.987975000000006)"
LINK-000569,Manhattan,105,40.759654,-73.987773,A - Link Live,107819,740 8 Avenue,47 NE,NY-MN,mn-05-107819,2004-06-16,03/12/2016,"(40.759653999999998, -73.987773000000004)"
LINK-000636,Manhattan,106,40.760625,-73.968675,A - Link Live,133365,140 E 57 St,17 N,NY-MN,mn-06-133365,2/21/17,11/23/2016,"(40.760624999999997, -73.968675000000005)"
LINK-000780,Queens,412,40.701827,-73.807661,A - Link Live,141535,147-05 Jamaica Ave,183 S,NY-QN,qu-12-141535,9/23/16,08/27/2016,"(40.701827000000002, -73.807660999999996)"
LINK-000781,Queens,412,40.701853,-73.806477,A - Link Live,141534,148-07 Jamaica Ave,180 S,NY-QN,qu-12-141534,9/23/16,08/27/2016,"(40.701853, -73.806477000000001)"
LINK-000783,Queens,412,40.70345249,-73.80035218,A - Link Live,141547,90-50 Parsons Boulevard,151 SE,NY-QN,qu-12-141547,2002-03-17,12/20/2016,"(40.703452485340797, -73.8003521766246)"
LINK-000784,Queens,412,40.704026,-73.798694,A - Link Live,141545,160-15 Jamaica Ave,134 SE,NY-QN,qu-12-141545,10/20/16,08/18/2016,"(40.704025999999999, -73.798693999999998)"
LINK-000785,Queens,412,40.703352,-73.799923,A - Link Live,141549,159-02 Jamaica Ave,339 N,NY-QN,qu-12-141549,9/23/16,08/18/2016,"(40.703352000000002, -73.799923000000007)"
LINK-000789,Queens,412,40.705836,-73.793728,A - Link Live,138109,166-02 Jamaica Ave,350 N,NY-QN,qu-12-138109,9/23/16,08/18/2016,"(40.705835999999998, -73.793728000000002)"
LINK-000791,Queens,412,40.705143,-73.795897,A - Link Live,141540,163-33 Jamaica Ave,152 SE,NY-QN,qu-12-141540,11/30/16,08/27/2016,"(40.705143, -73.795896999999997)"
LINK-000793,Queens,412,40.705972,-73.793787,A - Link Live,141550,166-01 Jamaica Ave,144 SE,NY-QN,qu-12-141550,9/23/16,08/27/2016,"(40.705972000000003, -73.793786999999995)"
LINK-000794,Queens,412,40.702693,-73.801992,A - Link Live,142734,153-10 Jamaica Ave,335 NW,NY-QN,qu-12-142734,9/23/16,08/27/2016,"(40.702692999999996, -73.801991999999998)"
LINK-000797,Queens,412,40.703771,-73.799345,A - Link Live,144028,159-29 Jamaica Ave,148 SE,NY-QN,qu-12-144028,9/28/16,08/18/2016,"(40.703771000000003, -73.799345000000002)"
LINK-000798,Queens,412,40.703896,-73.799018,A - Link Live,138097,160-05 Jamaica Ave,162 S,NY-QN,qu-12-138097,9/23/16,08/18/2016,"(40.703896, -73.799018000000004)"
LINK-000799,Queens,412,40.703928,-73.79847,A - Link Live,141542,161-02 Jamaica Ave,341 N,NY-QN,qu-12-141542,2002-03-17,12/20/2016,"(40.703927999999998, -73.798469999999995)"
LINK-000801,Queens,412,40.704359,-73.797868,A - Link Live,141537,161-21 Jamaica Ave,147 SE,NY-QN,qu-12-141537,9/30/16,08/19/2016,"(40.704358999999997, -73.797867999999994)"
LINK-000802,Queens,412,40.704206,-73.797736,A - Link Live,141538,162-02 Jamaica Ave,345 N,NY-QN,qu-12-141538,2002-03-17,12/20/2016,"(40.704205999999999, -73.797736)"
LINK-000804,Queens,412,40.704607,-73.796799,A - Link Live,141541,163-02 Jamaica Ave,345 N,NY-QN,qu-12-141541,9/23/16,08/27/2016,"(40.704607000000003, -73.796798999999993)"
LINK-000805,Queens,412,40.704682,-73.796617,A - Link Live,138095,163-06 Jamaica Ave,336 NW,NY-QN,qu-12-138095,2010-07-16,08/27/2016,"(40.704681999999998, -73.796616999999998)"
LINK-000824,Manhattan,108,40.762092,-73.965806,A - Link Live,121741,1011 3 AVENUE,122SE,NY-MN,mn-08-121741,3/29/16,02/27/2016,"(40.762092000000003, -73.965806000000001)"
LINK-000825,Manhattan,108,40.762896,-73.965443,A - Link Live,134750,1031 3 AVENUE,295 NW,NY-MN,mn-08-134750,3/29/16,03/05/2016,"(40.762895999999998, -73.965442999999993)"
LINK-000826,Manhattan,108,40.763037,-73.965653,A - Link Live,136989,1030 3 AVENUE,115 SE,NY-MN,mn-08-136989,3/29/16,02/27/2016,"(40.763036999999997, -73.965653000000003)"
LINK-000834,Manhattan,108,40.767309,-73.96253,A - Link Live,120986,1172 3 AVENUE,74 E,NY-MN,mn-08-120986,4/15/16,03/19/2016,"(40.767308999999997, -73.962530000000001)"
LINK-000835,Manhattan,108,40.767231,-73.962305,A - Link Live,120988,1175 3 AVENUE,308 NW,NY-MN,mn-08-120988,3/30/16,02/27/2016,"(40.767231000000002, -73.962305000000001)"
LINK-000836,Manhattan,108,40.767655,-73.961971,A - Link Live,120983,1175 3 AVENUE,298 NW,NY-MN,mn-08-120983,3/29/16,02/27/2016,"(40.767654999999998, -73.961971000000005)"
LINK-000837,Manhattan,108,40.767853,-73.962256,A - Link Live,120985,1180 3 AVENUE,27 NE,NY-MN,mn-08-120985,3/29/16,02/27/2016,"(40.767853000000002, -73.962255999999996)"
LINK-000838,Manhattan,108,40.769098,-73.961327,A - Link Live,120994,176 E 71 ST,18 N,NY-MN,mn-08-120994,2011-08-16,10/15/2016,"(40.769098, -73.961326999999997)"
LINK-000839,Manhattan,108,40.768943,-73.960952,A - Link Live,120995,200 E 71 ST,12 N,NY-MN,mn-08-120995,3/29/16,03/05/2016,"(40.768943, -73.960952000000006)"
LINK-000842,Manhattan,108,40.770545,-73.960254,A - Link Live,120990,1270 3 AVENUE,186 S,NY-MN,mn-08-120990,3/29/16,03/05/2016,"(40.770544999999998, -73.960254000000006)"
LINK-000843,Manhattan,108,40.770456,-73.959928,A - Link Live,120991,1271 E 75ST,22 NE,NY-MN,mn-08-120991,3/29/16,03/05/2016,"(40.770456000000003, -73.959928000000005)"
LINK-000845,Manhattan,108,40.770946,-73.959496,A - Link Live,121002,200 E 74 ST,14 N,NY-MN,mn-08-121002,2011-07-16,10/01/2016,"(40.770946000000002, -73.959496000000001)"
LINK-000849,Manhattan,108,40.772144,-73.958697,A - Link Live,128748,1325 3 AVENUE,289 W,NY-MN,mn-08-128748,3/24/16,03/05/2016,"(40.772143999999997, -73.958697000000001)"
LINK-000850,Manhattan,108,40.772356,-73.958536,A - Link Live,120998,1329 3 AVENUE,311 NW,NY-MN,mn-08-120998,3/24/16,03/05/2016,"(40.772356000000002, -73.958535999999995)"
LINK-000851,Manhattan,108,40.772365,-73.958948,A - Link Live,120999,1328 3 AVENUE,8 N,NY-MN,mn-08-120999,3/24/16,03/05/2016,"(40.772365000000001, -73.958948000000007)"
LINK-000852,Manhattan,108,40.772478,-73.958769,A - Link Live,134742,1330 3 AVENUE,98 E,NY-MN,mn-08-134742,3/24/16,03/05/2016,"(40.772478, -73.958769000000004)"
LINK-000853,Manhattan,108,40.773003,-73.958474,A - Link Live,120997,176 E 77ST,27 NE,NY-MN,mn-08-120997,3/24/16,02/15/2016,"(40.773003000000003, -73.958473999999995)"
LINK-000854,Manhattan,108,40.772825,-73.958235,A - Link Live,134739,1345 E 78ST,302 NW,NY-MN,mn-08-134739,5/16/16,04/16/2016,"(40.772824999999997, -73.958235000000002)"
LINK-000857,Manhattan,108,40.773727,-73.957965,A - Link Live,121004,1374 3 AVENUE,197 S,NY-MN,mn-08-121004,3/30/16,03/02/2016,"(40.773727000000001, -73.957965000000002)"
LINK-000858,Manhattan,108,40.774207,-73.957499,A - Link Live,121016,1388 3 AVENUE,112 E,NY-MN,mn-08-121016,3/30/16,03/02/2016,"(40.774206999999997, -73.957498999999999)"
LINK-000860,Manhattan,108,40.77435,-73.95709,A - Link Live,121005,201 E 79ST,191 S,NY-MN,mn-08-121005,3/30/16,02/26/2016,"(40.774349999999998, -73.957089999999994)"
LINK-000862,Manhattan,108,40.774855,-73.956665,A - Link Live,121015,1409 3 AVENUE,34 NE,NY-MN,mn-08-121015,3/30/16,02/15/2016,"(40.774855000000002, -73.956665000000001)"
LINK-000864,Manhattan,108,40.776367,-73.955933,A - Link Live,121010,1450 3 AVENUE,125 SE,NY-MN,mn-08-121010,3/30/16,02/15/2016,"(40.776367, -73.955933000000002)"
LINK-000865,Manhattan,108,40.776833,-73.955586,A - Link Live,121023,1460 3 AVENUE,88 E,NY-MN,mn-08-121023,3/30/16,02/15/2016,"(40.776833000000003, -73.955585999999997)"
LINK-000867,Manhattan,108,40.77702,-73.955139,A - Link Live,134740,1475 3 AVENUE,317 NW,NY-MN,mn-08-134740,3/30/16,03/02/2016,"(40.77702, -73.955139000000003)"
LINK-000868,Manhattan,108,40.777561,-73.954752,A - Link Live,121021,1495 3 AVENUE,327 NW,NY-MN,mn-08-121021,4/15/16,02/26/2016,"(40.777560999999999, -73.954751999999999)"
LINK-000869,Manhattan,108,40.777528,-73.955153,A - Link Live,121020,1488 3 AVENUE,8 N,NY-MN,mn-08-121020,3/24/16,02/26/2016,"(40.777527999999997, -73.955152999999996)"
LINK-000870,Manhattan,108,40.778272,-73.954541,A - Link Live,121017,1518 3 AVENUE,96 E,NY-MN,mn-08-121017,2006-09-16,03/19/2016,"(40.778272000000001, -73.954541000000006)"
LINK-000871,Manhattan,108,40.778003,-73.954428,A - Link Live,121019,1505 3 AVENUE,309 NW,NY-MN,mn-08-121019,3/28/16,03/19/2016,"(40.778002999999998, -73.954427999999993)"
LINK-000877,Manhattan,108,40.7786,-73.95399,A - Link Live,107963,200 E 86ST,297 NW,NY-MN,mn-08-107963,3/30/16,02/26/2016,"(40.778599999999997, -73.953990000000005)"
LINK-000878,Manhattan,108,40.778603,-73.953717,A - Link Live,134748,200 E 86ST,20 N,NY-MN,mn-08-134748,4/15/16,02/22/2016,"(40.778602999999997, -73.953716999999997)"
LINK-000879,Manhattan,108,40.778792,-73.953663,A - Link Live,133368,1529 3 AVENUE,209 SW,NY-MN,mn-08-133368,2005-05-16,04/23/2016,"(40.778792000000003, -73.953663000000006)"
LINK-000880,Manhattan,108,40.779038,-73.95398,A - Link Live,119826,179 E 86ST,144 SE,NY-MN,mn-08-119826,3/23/16,03/05/2016,"(40.779038, -73.953980000000001)"
LINK-000882,Manhattan,108,40.779535,-73.953715,A - Link Live,119825,170 E 87ST,1 N,NY-MN,mn-08-119825,3/23/16,02/26/2016,"(40.779535000000003, -73.953715000000003)"
LINK-000885,Manhattan,108,40.779635,-73.953537,A - Link Live,138052,1550 3 AVENUE,94 E,NY-MN,mn-08-138052,3/23/16,02/22/2016,"(40.779634999999999, -73.953536999999997)"
LINK-000886,Manhattan,108,40.780782,-73.9524,A - Link Live,119822,1585 3 AVENUE,323 NW,NY-MN,mn-08-119822,3/28/16,03/19/2016,"(40.780782000000002, -73.952399999999997)"
LINK-000887,Manhattan,108,40.781503,-73.952279,A - Link Live,119821,181 E 90ST,301 NW,NY-MN,mn-08-119821,3/23/16,02/26/2016,"(40.781503000000001, -73.952279000000004)"
LINK-000888,Manhattan,108,40.782159,-73.951699,A - Link Live,119833,1622 3 AVENUE,106 E,NY-MN,mn-08-119833,3/23/16,02/15/2016,"(40.782159, -73.951699000000005)"
LINK-000889,Manhattan,108,40.782768,-73.951263,A - Link Live,119832,1644 3 AVENUE,82 E,NY-MN,mn-08-119832,3/23/16,02/22/2016,"(40.782767999999997, -73.951262999999997)"
LINK-000890,Manhattan,108,40.783285,-73.950553,A - Link Live,119830,1675 3 AVENUE,289 W,NY-MN,mn-08-119830,7/15/16,07/01/2016,"(40.783284999999999, -73.950552999999999)"
LINK-000891,Manhattan,108,40.784663,-73.949875,A - Link Live,119829,1700 3 AVENUE,112 E,NY-MN,mn-08-119829,2004-01-16,02/27/2016,"(40.784663000000002, -73.949875000000006)"
LINK-000892,Manhattan,111,40.785818,-73.949032,A - Link Live,120218,175 E 96 ST,91 E,NY-MN,mn-11-120218,3/23/16,03/05/2016,"(40.785817999999999, -73.949032000000003)"
LINK-000893,Manhattan,111,40.787309,-73.947944,A - Link Live,107836,1786 3 AVENUE,71 E,NY-MN,mn-11-107836,4/27/16,04/16/2016,"(40.787309, -73.947944000000007)"
LINK-000896,Manhattan,111,40.789608,-73.946262,A - Link Live,120214,1888 3 AVENUE,101 E,NY-MN,mn-11-120214,3/28/16,03/19/2016,"(40.789608000000001, -73.946262000000004)"
LINK-000897,Manhattan,111,40.790401,-73.945683,A - Link Live,120226,1882 3 AVENUE,87 E,NY-MN,mn-11-120226,6/15/16,05/21/2016,"(40.790401000000003, -73.945683000000002)"
LINK-000898,Manhattan,111,40.790862,-73.945348,A - Link Live,120225,1896 3 AVENUE,111 E,NY-MN,mn-11-120225,6/15/16,05/21/2016,"(40.790861999999997, -73.945347999999996)"
LINK-000899,Manhattan,111,40.791482,-73.944898,A - Link Live,120224,1918 3 AVENUE,97 E,NY-MN,mn-11-120224,3/23/16,02/22/2016,"(40.791482000000002, -73.944897999999995)"
LINK-000900,Manhattan,111,40.791275,-73.944221,A - Link Live,132877,1915 3 AVENUE,39 NE,NY-MN,mn-11-132877,3/22/16,03/02/2016,"(40.791274999999999, -73.944220999999999)"
LINK-000901,Manhattan,111,40.792394,-73.944231,A - Link Live,143074,1950 3 AVENUE,104 E,NY-MN,mn-11-143074,3/22/16,03/05/2016,"(40.792394000000002, -73.944231000000002)"
LINK-000902,Manhattan,111,40.792292,-73.943977,A - Link Live,120222,1945 3 AVENUE,307 NW,NY-MN,mn-11-120222,6/15/16,05/20/2016,"(40.792292000000003, -73.943977000000004)"
LINK-000903,Manhattan,111,40.793009,-73.943784,A - Link Live,120221,1966 3 AVENUE,103 E,NY-MN,mn-11-120221,3/22/16,02/27/2016,"(40.793008999999998, -73.943783999999994)"
LINK-000904,Manhattan,111,40.794274,-73.942861,A - Link Live,120232,2004 3 AVENUE,133 SE,NY-MN,mn-11-120232,3/22/16,03/05/2016,"(40.794274000000001, -73.942860999999994)"
LINK-000905,Manhattan,111,40.794912,-73.942398,A - Link Live,107915,2022 3 AVENUE,97 E,NY-MN,mn-11-107915,7/20/16,07/02/2016,"(40.794911999999997, -73.942397999999997)"
LINK-000906,Manhattan,111,40.797303,-73.940337,A - Link Live,120229,2105 3 AVENUE,289 W,NY-MN,mn-11-120229,3/22/16,02/22/2016,"(40.797302999999999, -73.940337)"
LINK-000907,Manhattan,111,40.797836,-73.940258,A - Link Live,107218,2120 3 AVENUE,125 SE,NY-MN,mn-11-107218,3/22/16,03/05/2016,"(40.797835999999997, -73.940258)"
LINK-000908,Manhattan,111,40.797709,-73.940035,A - Link Live,116230,2119 3 AVENUE,308 NW,NY-MN,mn-11-116230,3/22/16,03/05/2016,"(40.797708999999998, -73.940034999999995)"
LINK-000909,Manhattan,111,40.79812373,-73.93998607,A - Link Live,120240,2126 3 AVENUE,204 SW,NY-MN,mn-11-120240,2007-01-16,05/20/2016,"(40.798123726179497, -73.9399860684114)"
LINK-000911,Manhattan,111,40.801528,-73.937249,A - Link Live,137841,2239 3 AVENUE,311 NW,NY-MN,mn-11-137841,3/31/16,02/27/2016,"(40.801527999999998, -73.937248999999994)"
LINK-000912,Manhattan,111,40.801899,-73.93729,A - Link Live,120235,2246 3 AVENUE,100 E,NY-MN,mn-11-120235,2004-11-16,02/22/2016,"(40.801898999999999, -73.937290000000004)"
LINK-000913,Manhattan,111,40.802663,-73.93672,A - Link Live,142952,2266 3 AVENUE,129 SE,NY-MN,mn-11-142952,3/30/16,03/02/2016,"(40.802663000000003, -73.936719999999994)"
LINK-000914,Manhattan,111,40.80287,-73.93627,A - Link Live,143437,2277 3 AVENUE,289 W,NY-MN,mn-11-143437,6/15/16,04/23/2016,"(40.802869999999999, -73.936269999999993)"
LINK-000915,Manhattan,111,40.803517,-73.93611,A - Link Live,143675,160 E 125 ST,126 SE,NY-MN,mn-11-143675,3/22/16,03/02/2016,"(40.803516999999999, -73.936109999999999)"
LINK-000916,Manhattan,111,40.803731,-73.936139,A - Link Live,144673,160 E 125 ST,25 NE,NY-MN,mn-11-144673,3/28/16,03/19/2016,"(40.803730999999999, -73.936138999999997)"
LINK-000918,Manhattan,108,40.765881,-73.963586,A - Link Live,120980,1126 3 AVENUE,122 SE,NY-MN,mn-08-120980,4/22/16,03/19/2016,"(40.765881, -73.963586000000006)"
LINK-000919,Manhattan,107,40.769554,-73.981831,A - Link Live,122843,1858 BROADWAY,18 N,NY-MN,mn-07-122843,9/30/16,04/30/2016,"(40.769553999999999, -73.981831)"
LINK-000920,Manhattan,107,40.769805,-73.981919,A - Link Live,133501,1860 BROADWAY,275 W,NY-MN,mn-07-133501,9/30/16,04/30/2016,"(40.769804999999998, -73.981919000000005)"
LINK-000922,Manhattan,107,40.769829,-73.982482,A - Link Live,133518,1855 BROADWAY,344 N,NY-MN,mn-07-133518,9/30/16,04/30/2016,"(40.769829000000001, -73.982482000000005)"
LINK-000926,Manhattan,107,40.774723,-73.982001,A - Link Live,121339,1992 BROADWAY,311 NW,NY-MN,mn-07-121339,7/19/16,04/19/2016,"(40.774723000000002, -73.982000999999997)"
LINK-000928,Manhattan,107,40.774894,-73.982571,A - Link Live,133488,1972 BROADWAY,199 S,NY-MN,mn-07-133488,7/19/16,04/16/2016,"(40.774894000000003, -73.982570999999993)"
LINK-000929,Manhattan,107,40.774757,-73.982507,A - Link Live,134275,1967 BROADWAY,15 N,NY-MN,mn-07-134275,7/19/16,04/16/2016,"(40.774757000000001, -73.982506999999998)"
LINK-000930,Manhattan,107,40.774646,-73.982408,A - Link Live,134274,1967 BROADWAY,77 E,NY-MN,mn-07-134274,7/19/16,04/16/2016,"(40.774645999999997, -73.982408000000007)"
LINK-000932,Manhattan,107,40.77539,-73.981829,A - Link Live,121337,2008 BROADWAY,224 SW,NY-MN,mn-07-121337,7/18/16,05/05/2016,"(40.775390000000002, -73.981829000000005)"
LINK-000936,Manhattan,107,40.776011,-73.981951,A - Link Live,108233,2018 BROADWAY,234 SW,NY-MN,mn-07-108233,12/14/16,09/22/2016,"(40.776010999999997, -73.981950999999995)"
LINK-000937,Manhattan,107,40.776311,-73.981936,A - Link Live,121336,2020 BROADWAY,195 S,NY-MN,mn-07-121336,10/28/16,09/08/2016,"(40.776311, -73.981936000000005)"
LINK-000939,Manhattan,107,40.776474,-73.982429,A - Link Live,133487,2029 BROADWAY,206 SW,NY-MN,mn-07-133487,7/19/16,04/26/2016,"(40.776474, -73.982428999999996)"
LINK-000942,Manhattan,107,40.777137,-73.981899,A - Link Live,121335,2040 BROADWAY,302 NW,NY-MN,mn-07-121335,7/19/16,04/19/2016,"(40.777137000000003, -73.981898999999999)"
LINK-000945,Manhattan,107,40.778607,-73.98218,A - Link Live,108166,2077 BROADWAY,104 E,NY-MN,mn-07-108166,5/24/16,05/05/2016,"(40.778607000000001, -73.98218)"
LINK-000946,Manhattan,107,40.779099,-73.982074,A - Link Live,133403,2085 BROADWAY,80 E,NY-MN,mn-07-133403,5/16/16,04/22/2016,"(40.779099000000002, -73.982073999999997)"
LINK-000947,Manhattan,107,40.779331,-73.981991,A - Link Live,133410,2095 BROADWAY,75 E,NY-MN,mn-07-133410,4/27/16,03/29/2016,"(40.779330999999999, -73.981990999999994)"
LINK-000951,Manhattan,107,40.780321,-73.981309,A - Link Live,133408,2120 BROADWAY,318 NW,NY-MN,mn-07-133408,5/26/16,05/05/2016,"(40.780321000000001, -73.981308999999996)"
LINK-000952,Manhattan,107,40.780825,-73.981168,A - Link Live,133406,2130 BROADWAY,307 NW,NY-MN,mn-07-133406,2005-12-16,04/22/2016,"(40.780825, -73.981167999999997)"
LINK-000955,Manhattan,107,40.780993,-73.981524,A - Link Live,121315,2135 BROADWAY,101 E,NY-MN,mn-07-121315,2005-12-16,04/06/2016,"(40.780993000000002, -73.981523999999993)"
LINK-000957,Manhattan,107,40.781474,-73.980961,A - Link Live,109544,2150 BROADWAY,284 W,NY-MN,mn-07-109544,5/26/16,04/06/2016,"(40.781474000000003, -73.980960999999994)"
LINK-000958,Manhattan,107,40.781694,-73.980793,A - Link Live,121223,2160 BROADWAY,240 SW,NY-MN,mn-07-121223,5/26/16,05/05/2016,"(40.781694000000002, -73.980793000000006)"
LINK-000959,Manhattan,107,40.781843,-73.980833,A - Link Live,133404,2160 BROADWAY,291 W,NY-MN,mn-07-133404,6/27/16,05/25/2016,"(40.781843000000002, -73.980833000000004)"
LINK-000963,Manhattan,107,40.782528,-73.980586,A - Link Live,121221,2182 BROADWAY,295 NW,NY-MN,mn-07-121221,6/27/16,05/25/2016,"(40.782527999999999, -73.980586000000002)"
LINK-000968,Manhattan,107,40.783191,-73.980253,A - Link Live,121232,2200 BROADWAY,319 NW,NY-MN,mn-07-121232,2005-12-16,04/19/2016,"(40.783191000000002, -73.980253000000005)"
LINK-000971,Manhattan,107,40.78392,-73.979708,A - Link Live,121229,2220 BROADWAY,312 NW,NY-MN,mn-07-121229,9/30/16,09/08/2016,"(40.783920000000002, -73.979708000000002)"
LINK-000974,Manhattan,107,40.78459,-73.979764,A - Link Live,121312,2239 BROADWAY,7 N,NY-MN,mn-07-121312,11/21/16,11/04/2016,"(40.784590000000001, -73.979764000000003)"
LINK-000975,Manhattan,107,40.784712,-73.979564,A - Link Live,133393,2245 BROADWAY,107 E,NY-MN,mn-07-133393,11/21/16,11/05/2016,"(40.784711999999999, -73.979563999999996)"
LINK-000978,Manhattan,107,40.785005,-73.978781,A - Link Live,121239,2252 BROADWAY,24 NE,NY-MN,mn-07-121239,5/19/16,04/22/2016,"(40.785004999999998, -73.978780999999998)"
LINK-000981,Manhattan,107,40.785136,-73.979249,A - Link Live,121300,2255 BROADWAY,135 SE,NY-MN,mn-07-121300,2011-02-16,10/14/2016,"(40.785136000000001, -73.979248999999996)"
LINK-000983,Manhattan,107,40.785754,-73.978787,A - Link Live,121238,2275 BROADWAY,132 SE,NY-MN,mn-07-121238,2/27/17,09/08/2016,"(40.785753999999997, -73.978786999999997)"
LINK-000985,Manhattan,107,40.785813,-73.978293,A - Link Live,121302,2282 BROADWAY,330 NW,NY-MN,mn-07-121302,2005-05-16,04/06/2016,"(40.785812999999997, -73.978292999999994)"
LINK-000987,Manhattan,107,40.78622,-73.977987,A - Link Live,133415,2298 BROADWAY,321 NW,NY-MN,mn-07-133415,4/27/16,04/06/2016,"(40.78622, -73.977986999999999)"
LINK-000989,Manhattan,107,40.786204,-73.977693,A - Link Live,136212,222 BROADWAY,12 N,NY-MN,mn-07-136212,4/27/16,03/29/2016,"(40.786203999999998, -73.977693000000002)"
LINK-000991,Manhattan,107,40.786403,-73.9783,A - Link Live,121304,2299 BROADWAY,106 E,NY-MN,mn-07-121304,2004-09-16,03/29/2016,"(40.786403, -73.978300000000004)"
LINK-000992,Manhattan,107,40.787028,-73.977832,A - Link Live,121306,2315 BROADWAY,107 E,NY-MN,mn-07-121306,12/14/16,11/02/2016,"(40.787027999999999, -73.977832000000006)"
LINK-000994,Manhattan,107,40.787249,-73.97765,A - Link Live,133810,2321 BROADWAY,140 SE,NY-MN,mn-07-133810,12/14/16,11/02/2016,"(40.787249000000003, -73.977649999999997)"
LINK-000995,Manhattan,107,40.786896,-73.977483,A - Link Live,121247,2310 BROADWAY,320 NW,NY-MN,mn-07-121247,2005-04-16,04/22/2016,"(40.786895999999999, -73.977483000000007)"
LINK-000997,Manhattan,107,40.788006,-73.976545,A - Link Live,107814,2350 BROADWAY,335 NW,NY-MN,mn-07-107814,2008-10-16,07/22/2016,"(40.788006000000003, -73.976545000000002)"
LINK-001006,Bronx,204,40.819886,-73.926847,A - Link Live,140582,597 GRAND CONCOURSE,110 E,NY-BX,bx-04-140582,7/15/16,06/09/2016,"(40.819885999999997, -73.926846999999995)"
LINK-001009,Brooklyn,302,40.699342,-73.992187,A - Link Live,125681,60 H HENRY ST,44 NE,NY-BK,bk-02-125681,2/13/17,12/15/2016,"(40.699342000000001, -73.992187000000001)"
LINK-001010,Brooklyn,302,40.697589,-73.993033,A - Link Live,125682,73 CLARK ST,63 NE,NY-BK,bk-02-125682,2/13/17,12/01/2016,"(40.697589000000001, -73.993032999999997)"
LINK-001032,Brooklyn,302,40.690588,-73.984481,A - Link Live,134976,519 FULTON ST,107 E,NY-BK,bk-02-134976,2003-07-17,02/13/2017,"(40.690587999999998, -73.984481000000002)"
LINK-001078,Brooklyn,309,40.660852,-73.960581,A - Link Live,126569,535 FLATBUSH AVE,274 W,NY-BK,bk-09-126569,2003-07-17,02/17/2017,"(40.660851999999998, -73.960581000000005)"
LINK-001122,Queens,409,40.71317,-73.829803,A - Link Live,128371,80-55 KEW GARDENS ROAD,219 SW,NY-QN,qu-09-128371,7/29/16,07/20/2016,"(40.713169999999998, -73.829802999999998)"
LINK-001123,Queens,406,40.717664,-73.836262,A - Link Live,124182,112-28 QUEENS BLVD,8 N,NY-QN,qu-06-124182,7/29/16,07/20/2016,"(40.717663999999999, -73.836262000000005)"
LINK-001125,Queens,406,40.719293,-73.839741,A - Link Live,124180,110-44 QUEENS BLVD,4 N,NY-QN,qu-06-124180,7/29/16,07/20/2016,"(40.719293, -73.839741000000004)"
LINK-001134,Queens,406,40.728299,-73.858076,A - Link Live,124200,98-04 Queens Blvd,15 N,NY-QN,qu-06-124200,11/30/16,11/05/2016,"(40.728299, -73.858075999999997)"
LINK-001140,Queens,404,40.734546,-73.874704,A - Link Live,124921,89-02 Queens Blvd,11 N,NY-QN,qu-04-124921,12/29/16,11/05/2016,"(40.734546000000002, -73.874703999999994)"
LINK-001149,Queens,402,40.741288,-73.904656,A - Link Live,124939,59-40 Queens Blvd,8 n,NY-QN,qu-02-124939,2001-05-17,11/05/2016,"(40.741287999999997, -73.904656000000003)"
LINK-001152,Queens,402,40.742912,-73.91854,A - Link Live,124947,46-02 Queens Blvd,2 n,NY-QN,qu-02-124947,2002-02-17,11/05/2016,"(40.742911999999997, -73.918539999999993)"
LINK-001154,Queens,402,40.743063,-73.920684,A - Link Live,128387,45-02 44 STREET,109 E,NY-QN,qu-02-128387,2002-02-17,11/19/2016,"(40.743062999999999, -73.920683999999994)"
LINK-001155,Queens,402,40.743221,-73.921257,A - Link Live,142124,43-02 Queens Blvd,37 NE,NY-QN,qu-02-142124,2002-02-17,11/19/2016,"(40.743220999999998, -73.921256999999997)"
LINK-001159,Queens,402,40.743823,-73.926455,A - Link Live,143422,38-18 QUEENS BLVD,352 N,NY-QN,qu-02-143422,2002-02-17,11/19/2016,"(40.743822999999999, -73.926455000000004)"
LINK-001160,Queens,402,40.743878,-73.926926,A - Link Live,124955,38-02 QUEENS BLVD,5 N,NY-QN,qu-02-124955,2/21/17,11/19/2016,"(40.743878000000002, -73.926925999999995)"
LINK-001194,Queens,402,40.744151,-73.929829,A - Link Live,143797,45-01 35 Street,353 N,NY-QN,qu-02-143797,2002-07-17,11/05/2016,"(40.744151000000002, -73.929828999999998)"
LINK-001195,Queens,402,40.744278,-73.930399,A - Link Live,102099,34-02 Queens Blvd,25 NE,NY-QN,qu-01-102099,2002-02-17,11/05/2016,"(40.744278000000001, -73.930398999999994)"
LINK-001353,Bronx,207,40.867326,-73.897195,A - Link Live,119749,2 EAST KINGSBRIDGE ROAD,308 NW,NY-BX,bx-07-119749,2002-08-17,01/25/2017,"(40.867325999999998, -73.897194999999996)"
LINK-001354,Bronx,207,40.867362,-73.897624,A - Link Live,119760,2663 Jerome Ave,121 SE,NY-BX,bx-07-119760,7/19/16,07/01/2016,"(40.867362, -73.897623999999993)"
LINK-001363,Bronx,204,40.839445,-73.915848,A - Link Live,119157,96 East 170 street,103 E,NY-BX,bx-04-119157,9/15/16,06/09/2016,"(40.839444999999998, -73.915847999999997)"
LINK-001365,Bronx,205,40.857756,-73.901091,A - Link Live,102420,126 East 183 street,22 N,NY-BX,bx-05-102420,6/29/16,05/12/2016,"(40.857756000000002, -73.901090999999994)"
LINK-001484,Manhattan,107,40.790053,-73.974767,A - Link Live,133391,216 West 89st,17 N,NY-MN,mn-07-133391,10/25/16,06/24/2016,"(40.790053, -73.974767)"
LINK-001488,Manhattan,107,40.790899,-73.974297,A - Link Live,121255,2440 Broadway,325 NW,NY-MN,mn-07-121255,6/27/16,05/20/2016,"(40.790899000000003, -73.974297000000007)"
LINK-001490,Manhattan,107,40.790818,-73.97481,A - Link Live,121295,2431 Broadway,34 NE,NY-MN,mn-07-121295,6/27/16,05/27/2016,"(40.790818000000002, -73.974810000000005)"
LINK-001492,Manhattan,107,40.791401,-73.973822,A - Link Live,121254,215 West 91st,224 SW,NY-MN,mn-07-121254,2007-07-16,06/24/2016,"(40.791401, -73.973821999999998)"
LINK-001495,Manhattan,107,40.791943,-73.973425,A - Link Live,121253,214 West 92st,23 NE,NY-MN,mn-07-121253,2007-07-16,05/27/2016,"(40.791943000000003, -73.973425000000006)"
LINK-001502,Manhattan,107,40.79382,-73.972036,A - Link Live,107918,230 West 95 Street,28 NE,NY-MN,mn-07-107918,2007-07-16,06/04/2016,"(40.793819999999997, -73.972036000000003)"
LINK-001503,Manhattan,107,40.794041,-73.972568,A - Link Live,120596,250 West 95 Street,43 NE,NY-MN,mn-07-120596,2007-07-16,05/20/2016,"(40.794041, -73.972567999999995)"
LINK-001504,Manhattan,107,40.794461,-73.971574,A - Link Live,100260,214 West 96 Street,40 NE,NY-MN,mn-07-100260,11/23/16,11/04/2016,"(40.794460999999998, -73.971574000000004)"
LINK-001507,Manhattan,107,40.795171,-73.971048,A - Link Live,120513,230 West 97 Street,16 N,NY-MN,mn-07-120513,2007-08-16,05/27/2016,"(40.795171000000003, -73.971047999999996)"
LINK-001542,Manhattan,107,40.796566,-73.970619,A - Link Live,120285,2617 Broadway,120 SE,NY-MN,mn-07-120285,2011-02-16,10/03/2016,"(40.796565999999999, -73.970618999999999)"
LINK-001543,Manhattan,107,40.796762,-73.970651,A - Link Live,107801,243 Broadway,195 S,NY-MN,mn-07-107801,7/21/16,07/10/2016,"(40.796762000000001, -73.970651000000004)"
LINK-001546,Manhattan,107,40.797148,-73.96963,A - Link Live,120510,219 West 100 st,212 SW,NY-MN,mn-07-120510,2009-06-16,08/13/2016,"(40.797148, -73.969629999999995)"
LINK-001556,Manhattan,107,40.798954,-73.968326,A - Link Live,120393,216 West 103st,25 NE,NY-MN,mn-07-120393,2007-07-16,06/17/2016,"(40.798954000000002, -73.968326000000005)"
LINK-001557,Manhattan,107,40.79933,-73.96823,A - Link Live,107810,2704 Broadway,315 NW,NY-MN,mn-07-107810,2007-07-16,06/11/2016,"(40.799329999999998, -73.968230000000005)"
LINK-001558,Manhattan,107,40.799628,-73.967971,A - Link Live,120392,234 West 104st,25 NE,NY-MN,mn-07-120392,2011-02-16,10/14/2016,"(40.799627999999998, -73.967971000000006)"
LINK-001595,Manhattan,107,40.800581,-73.967782,A - Link Live,120391,2740 Broadway,281 W,NY-MN,mn-07-120391,2007-11-16,06/24/2016,"(40.800581000000001, -73.967782)"
LINK-001600,Manhattan,107,40.802126,-73.967493,A - Link Live,120402,249 West 107 Street,229 SW,NY-MN,mn-07-120402,2007-08-16,05/20/2016,"(40.802126000000001, -73.967493000000005)"
LINK-001602,Manhattan,107,40.802455,-73.968149,A - Link Live,120266,2781 Broadway,108 E,NY-MN,mn-07-120266,2007-01-16,05/20/2016,"(40.802455000000002, -73.968148999999997)"
LINK-001604,Manhattan,107,40.802944,-73.967379,A - Link Live,120401,2800 Broadway,316 NW,NY-MN,mn-07-120401,7/20/16,06/11/2016,"(40.802943999999997, -73.967378999999994)"
LINK-001605,Manhattan,107,40.803721,-73.967381,A - Link Live,120268,301 West 109st,204 SW,NY-MN,mn-07-120268,6/29/16,06/17/2016,"(40.803721000000003, -73.967381000000003)"
LINK-001612,Manhattan,109,40.805472,-73.965526,A - Link Live,120409,2880 Broadway,305 NW,NY-MN,mn-09-120409,6/29/16,06/11/2016,"(40.805472000000002, -73.965525999999997)"
LINK-001675,Manhattan,106,40.75096,-73.974135,A - Link Live,133439,675 3rd Ave,,NY-MN,mn-06-133439,7/21/16,07/19/2016,"(40.750959999999999, -73.974135000000004)"
LINK-001676,Manhattan,109,40.805923,-73.965081,A - Link Live,120408,562 West 113 Street,26 NE,NY-MN,mn-09-120408,2007-01-16,05/27/2016,"(40.805923, -73.965080999999998)"
LINK-001678,Manhattan,109,40.820281,-73.955267,A - Link Live,120374,601 West 135 Street,135 SE,NY-MN,mn-09-120374,2007-06-16,06/11/2016,"(40.820281000000001, -73.955267000000006)"
LINK-001680,Manhattan,109,40.82077,-73.954821,A - Link Live,120365,3359 Broadway,112 E,NY-MN,mn-09-120365,2007-07-16,06/17/2016,"(40.820770000000003, -73.954820999999995)"
LINK-001682,Manhattan,109,40.822319,-73.953676,A - Link Live,111128,3407 Broadway,147 SE,NY-MN,mn-09-111128,7/14/16,06/17/2016,"(40.822319, -73.953676000000002)"
LINK-001683,Manhattan,109,40.822495,-73.953007,A - Link Live,120419,572 West 139 Street,40 NE,NY-MN,mn-09-120419,2007-01-16,05/14/2016,"(40.822495000000004, -73.953006999999999)"
LINK-001684,Manhattan,109,40.823326,-73.953041,A - Link Live,120371,600 West 140 Street,308 NW,NY-MN,mn-09-120371,2007-01-16,06/17/2016,"(40.823326000000002, -73.953040999999999)"
LINK-001688,Manhattan,109,40.808039,-73.964212,A - Link Live,120262,600 West 116st,28 NE,NY-MN,mn-09-120262,6/29/16,05/21/2016,"(40.808039000000001, -73.964212000000003)"
LINK-001689,Manhattan,109,40.807508,-73.964488,A - Link Live,137848,2943 Broadway,109 E,NY-MN,mn-09-137848,2009-06-16,08/13/2016,"(40.807507999999999, -73.964488000000003)"
LINK-001690,Manhattan,109,40.807296,-73.964646,A - Link Live,120261,2939 Broadway,100 E,NY-MN,mn-09-120261,3/13/17,02/11/2017,"(40.807296000000001, -73.964646000000002)"
LINK-001691,Manhattan,109,40.80676,-73.965108,A - Link Live,120387,600 West 114st,25 NE,NY-MN,mn-09-120387,2/27/17,02/04/2017,"(40.806759999999997, -73.965108000000001)"
LINK-001695,Manhattan,109,40.824559,-73.951597,A - Link Live,111652,3480 Broadway,337 NW,NY-MN,mn-09-111652,2007-01-16,05/27/2016,"(40.824559000000001, -73.951597000000007)"
LINK-001696,Manhattan,109,40.825091,-73.951659,A - Link Live,120360,3497 Broadway,136 SE,NY-MN,mn-09-120360,2007-06-16,06/11/2016,"(40.825091, -73.951659000000006)"
LINK-001699,Manhattan,109,40.825508,-73.950907,A - Link Live,111954,3514 Broadway,178 S,NY-MN,mn-09-111954,7/14/16,06/04/2016,"(40.825507999999999, -73.950907000000001)"
LINK-001702,Manhattan,109,40.82609,-73.950482,A - Link Live,111651,3536 Broadway,237 SW,NY-MN,mn-09-111651,7/14/16,06/24/2016,"(40.826090000000001, -73.950481999999994)"
LINK-001703,Manhattan,109,40.826377,-73.950718,A - Link Live,120363,3539 Broadway,108 E,NY-MN,mn-09-120363,10/21/16,10/03/2016,"(40.826377000000001, -73.950717999999995)"
LINK-001705,Manhattan,109,40.825446,-73.947868,A - Link Live,100210,501 West 145 Street,212 SW,NY-MN,mn-09-100210,2002-01-17,08/19/2016,"(40.825445999999999, -73.947868)"
LINK-001706,Manhattan,109,40.825419,-73.947604,A - Link Live,120565,1722 Amsterdam Ave,111 E,NY-MN,mn-09-120565,2002-01-17,06/24/2016,"(40.825418999999997, -73.947603999999998)"
LINK-001710,Staten Island,503,40.561754,-74.112158,A - Link Live,125464,285 Mill Road,120 SE,NY-SI,si-03-125464,1/25/17,12/20/2016,"(40.561754000000001, -74.112157999999994)"
LINK-001712,Staten Island,502,40.565851,-74.114223,A - Link Live,145544,2710 Hylan Blvd,311 NW,NY-SI,si-02-145544,2/22/17,01/31/2017,"(40.565851000000002, -74.114222999999996)"
LINK-001714,Staten Island,502,40.57031,-74.109659,A - Link Live,125463,404 New Dorp Lane,38 NE,NY-SI,si-02-125463,2/22/17,01/31/2017,"(40.570309999999999, -74.109658999999994)"
LINK-001715,Staten Island,502,40.570635,-74.109918,A - Link Live,125470,381 New Dorp Ln,212 SW,NY-SI,si-02-125470,2012-09-16,11/14/2016,"(40.570635000000003, -74.109917999999993)"
LINK-001716,Staten Island,502,40.572855,-74.114085,A - Link Live,125472,201 New Dorp Ln,212 SW,NY-SI,si-02-125472,2012-09-16,11/14/2016,"(40.572854999999997, -74.114085000000003)"
LINK-001750,Staten Island,502,40.577771,-74.10231,A - Link Live,125467,2154 Hylan Blvd,316 NW,NY-SI,si-02-125467,2/22/17,01/31/2017,"(40.577770999999998, -74.102310000000003)"
LINK-001752,Staten Island,502,40.590983,-74.100732,A - Link Live,125476,19 Seaview Ave,202 S,NY-SI,si-02-125476,2/28/17,01/31/2017,"(40.590983000000001, -74.100731999999994)"
LINK-001757,Staten Island,502,40.598523,-74.082329,A - Link Live,145522,1177 Hylan Blvd,146 SE,NY-SI,si-02-145522,2/28/17,01/31/2017,"(40.598523, -74.082329000000001)"
LINK-001773,Bronx,207,40.867627,-73.89873,A - Link Live,119873,26 West Kingsbridge Rd,14 N,NY-BX,bx-07-119873,7/15/16,06/09/2016,"(40.867626999999999, -73.89873)"
LINK-001774,Bronx,207,40.867828,-73.899576,A - Link Live,119874,56 West Kingsbridge Road,21 N,NY-BX,bx-07-119874,7/19/16,07/01/2016,"(40.867828000000003, -73.899575999999996)"
LINK-001777,Bronx,205,40.862314,-73.900316,A - Link Live,119573,2454 Walton Ave,307 NW,NY-BX,bx-05-119573,9/15/16,08/27/2016,"(40.862313999999998, -73.900316000000004)"
LINK-001780,Bronx,205,40.86063,-73.902369,A - Link Live,119606,2374 Jerome Ave,258 W,NY-BX,bx-05-119606,2007-01-16,06/09/2016,"(40.86063, -73.902368999999993)"
LINK-001785,Bronx,204,40.831467,-73.921747,A - Link Live,119048,105 East 165 Street,183 S,NY-BX,bx-04-119048,6/15/16,05/12/2016,"(40.831467000000004, -73.921746999999996)"
LINK-001787,Bronx,205,40.853042,-73.905553,A - Link Live,119590,104 East Burnside Ave,16 N,NY-BX,bx-05-119590,2007-01-16,06/09/2016,"(40.853042000000002, -73.905552999999998)"
LINK-001788,Bronx,205,40.853157,-73.905403,A - Link Live,119592,101 East Burnside Ave,208 SW,NY-BX,bx-05-119592,2007-07-16,06/09/2016,"(40.853157000000003, -73.905403000000007)"
LINK-001792,Bronx,204,40.818942,-73.92837,A - Link Live,119146,135 East 149st,262 W,NY-BX,bx-04-119146,6/15/16,05/12/2016,"(40.818942, -73.928370000000001)"
LINK-001820,Queens,412,40.706357,-73.792205,A - Link Live,141553,168-06 Jamaica Ave,350 N,NY-QN,qu-12-141553,9/28/16,08/18/2016,"(40.706356999999997, -73.792204999999996)"
LINK-001821,Queens,412,40.706507,-73.792368,A - Link Live,141536,168-03 Jamaica Ave,155 SE,NY-QN,qu-12-141536,9/28/16,08/18/2016,"(40.706507000000002, -73.792367999999996)"
LINK-001824,Queens,409,40.713983,-73.830838,A - Link Live,124172,80-02 Kew Gardens Rd,65 NE,NY-QN,qu-09-124172,11/30/16,11/05/2016,"(40.713982999999999, -73.830838)"
LINK-001827,Queens,406,40.715758,-73.833513,A - Link Live,124184,116-12 Queens Blvd,303 NW,NY-QN,qu-06-124184,7/29/16,07/20/2016,"(40.715758000000001, -73.833512999999996)"
LINK-002058,Manhattan,109,40.827321,-73.950028,A - Link Live,111986,3569 Broadway,66 NE,NY-MN,mn-09-111986,7/20/16,07/14/2016,"(40.827320999999998, -73.950028000000003)"
LINK-002059,Manhattan,109,40.827932,-73.949581,A - Link Live,111985,3581 Broadway,116 SE,NY-MN,mn-09-111985,7/20/16,07/15/2016,"(40.827931999999997, -73.949580999999995)"
LINK-002061,Manhattan,109,40.82758,-73.949288,A - Link Live,120434,546 WEST 147ST,13 N,NY-MN,mn-09-120434,8/22/16,08/01/2016,"(40.827579999999998, -73.949287999999996)"
LINK-002062,Manhattan,109,40.828097,-73.949017,A - Link Live,111874,3596 Broadway,312 NW,NY-MN,mn-09-111874,2008-03-16,07/14/2016,"(40.828097, -73.949016999999998)"
LINK-002064,Manhattan,109,40.828543,-73.949135,A - Link Live,120352,3601 Broadway,104 E,NY-MN,mn-09-120352,2008-03-16,07/20/2016,"(40.828543000000003, -73.949134999999998)"
LINK-002065,Manhattan,109,40.829037,-73.948869,A - Link Live,120354,600 West 149st,359 N,NY-MN,mn-09-120354,7/21/16,07/15/2016,"(40.829037, -73.948869000000002)"
LINK-002068,Manhattan,109,40.829675,-73.947866,A - Link Live,102722,3642 BROADWAY,300 NW,NY-MN,mn-09-102722,2008-04-16,07/20/2016,"(40.829675000000002, -73.947866000000005)"
LINK-002070,Manhattan,109,40.830208,-73.947909,A - Link Live,120356,3659 Broadway,78 E,NY-MN,mn-09-120356,7/20/16,07/15/2016,"(40.830207999999999, -73.947908999999996)"
LINK-002072,Manhattan,109,40.830586,-73.947195,A - Link Live,111931,3670 Broadway,305 NW,NY-MN,mn-09-111931,7/20/16,07/10/2016,"(40.830585999999997, -73.947194999999994)"
LINK-002073,Manhattan,109,40.830876,-73.946986,A - Link Live,111936,3680 BROADWAY,305 NW,NY-MN,mn-09-111936,2008-04-16,07/22/2016,"(40.830876000000004, -73.946985999999995)"
LINK-002084,Manhattan,112,40.836501,-73.942787,A - Link Live,120445,581 WEST 161 STREET,17 N,NY-MN,mn-12-120445,7/21/16,07/08/2016,"(40.836500999999998, -73.942786999999996)"
LINK-002214,Brooklyn,302,40.682932,-73.963959,A - Link Live,132668,979 FULTON STREET,,NY-BK,bk-02-132668,1/25/17,12/01/2016,"(40.682932000000001, -73.963959000000003)"
LINK-002341,Brooklyn,303,40.67896,-73.924424,A - Link Live,126646,1874 Fulton St,11 N,NY-BK,bk-03-126646,2011-08-16,10/27/2016,"(40.678959999999996, -73.924424000000002)"
LINK-002342,Brooklyn,303,40.679232,-73.927098,A - Link Live,126644,1803 Fulton Street,175 S,NY-BK,bk-03-126644,2011-09-16,10/27/2016,"(40.679231999999999, -73.927098000000001)"
LINK-002345,Brooklyn,303,40.678654,-73.916507,A - Link Live,126647,1961 FULTON STREET,,NY-BK,bk-03-126647,2/24/17,11/11/2016,"(40.678654000000002, -73.916506999999996)"
LINK-002347,Brooklyn,316,40.678354,-73.911008,A - Link Live,126635,2057 FULTON STREET,196 S,NY-BK,bk-16-126635,2012-09-16,11/11/2016,"(40.678353999999999, -73.911007999999995)"
LINK-002348,Brooklyn,316,40.678079,-73.908374,A - Link Live,126638,2208 FULTON STREET,,NY-BK,bk-03-126638,1/17/17,12/22/2016,"(40.678078999999997, -73.908373999999995)"
LINK-002455,Brooklyn,309,40.6688,-73.958717,A - Link Live,126619,856 FRANKLIN AVE,,NY-BK,bk-09-126619,2012-05-16,11/11/2016,"(40.668799999999997, -73.958716999999993)"
LINK-002456,Brooklyn,309,40.669652,-73.958261,A - Link Live,126617,837 FRANKLIN AVE,,NY-BK,bk-09-126617,2012-09-16,11/11/2016,"(40.669651999999999, -73.958260999999993)"
LINK-002457,Brooklyn,309,40.670318,-73.958173,A - Link Live,126616,806 FRANKLIN AVE,,NY-BK,bk-09-126616,2002-08-17,12/22/2016,"(40.670318000000002, -73.958173000000002)"
LINK-002526,Brooklyn,302,40.68845294,-73.9824699,A - Link Live,126838,275 LIVINGSTON ST,,NY-BK,bk-02-126838,1/30/17,11/11/2016,"(40.688452939751699, -73.982469904485498)"
LINK-002528,Brooklyn,302,40.687812,-73.981285,A - Link Live,126839,340 LIVINGSTON ST,23 NE,NY-BK,bk-02-126839,1/20/17,11/13/2016,"(40.687812000000001, -73.981285)"
LINK-002533,Brooklyn,302,40.68696059,-73.97637079,A - Link Live,126807,56 Lafayette Ave,,NY-BK,bk-02-126807,2001-09-17,11/11/2016,"(40.686960587781897, -73.976370791049007)"
LINK-002674,Queens,402,40.744451,-73.931875,A - Link Live,124952,32-44 QUEENS BLVD,,NY-QN,qu-02-124952,2002-02-17,11/05/2016,"(40.744450999999998, -73.931875000000005)"
LINK-002677,Manhattan,101,40.718036,-74.001021,A - Link Live,122319,106 LAFAYETTE STREET,137 SE,NY-MN,mn-01-122319,2009-06-16,08/11/2016,"(40.718035999999998, -74.001020999999994)"
LINK-002678,Manhattan,101,40.717828,-74.000962,A - Link Live,137165,101 LAFAYETTE STREET,332 NW,NY-MN,mn-01-137165,2009-06-16,08/01/2016,"(40.717827999999997, -74.000962000000001)"
LINK-002679,Manhattan,101,40.717484,-74.001523,A - Link Live,137940,90 LAFAYETTE STREET,130 SE,NY-MN,mn-01-137940,7/21/16,07/12/2016,"(40.717483999999999, -74.001523000000006)"
LINK-002680,Manhattan,101,40.717243,-74.001743,A - Link Live,137333,80 LAFAYETTE STREET,70 E,NY-MN,mn-01-137333,7/21/16,07/13/2016,"(40.717243000000003, -74.001743000000005)"
LINK-002682,Manhattan,101,40.716033,-74.00257,A - Link Live,123431,45 LAFAYETTE STREET,331 NW,NY-MN,mn-01-123431,7/21/16,07/12/2016,"(40.716033000000003, -74.002570000000006)"
LINK-002683,Manhattan,101,40.715485,-74.002666,A - Link Live,137399,125 WORTH STREET,229 SW,NY-MN,mn-01-137399,12/14/16,10/19/2016,"(40.715485000000001, -74.002666000000005)"
LINK-003010,Manhattan,102,40.733893,-73.991066,A - Link Live,133446,835 BROADWAY,299 NW,NY-MN,mn-02-133446,11/18/16,10/29/2016,"(40.733893000000002, -73.991066000000004)"
LINK-003015,Manhattan,103,40.731157,-73.985928,A - Link Live,115305,193 2 AVENUE,125 SE,NY-MN,mn-03-115305,9/13/16,07/08/2016,"(40.731157000000003, -73.985928000000001)"
LINK-003226,Manhattan,103,40.73108,-73.985739,A - Link Live,138575,192 2 AVENUE,308 NW,NY-MN,mn-03-138575,9/19/16,07/08/2016,"(40.731079999999999, -73.985738999999995)"
LINK-003227,Manhattan,103,40.730539,-73.986394,A - Link Live,138573,175 2 AVENUE,121 SE,NY-MN,mn-03-138573,9/13/16,07/10/2016,"(40.730539, -73.986394000000004)"
LINK-003228,Manhattan,103,40.730881,-73.985882,A - Link Live,123270,190 2 AVENUE,312 NW,NY-MN,mn-03-123270,9/13/16,07/02/2016,"(40.730880999999997, -73.985882000000004)"
LINK-003229,Manhattan,103,40.730249,-73.986348,A - Link Live,123269,170 2 AVENUE,311 NW,NY-MN,mn-03-123269,9/13/16,07/10/2016,"(40.730249000000001, -73.986348000000007)"
LINK-003230,Manhattan,103,40.729236,-73.987081,A - Link Live,123812,146 2 AVENUE,305 NW,NY-MN,mn-03-123812,11/30/16,11/05/2016,"(40.729236, -73.987081000000003)"
LINK-003232,Manhattan,103,40.72848,-73.987875,A - Link Live,131017,131 2 AVENUE,106 E,NY-MN,mn-03-131017,9/15/16,09/02/2016,"(40.728479999999998, -73.987875000000003)"
LINK-003234,Manhattan,103,40.72824,-73.987837,A - Link Live,128751,124 2 AVENUE,302 NW,NY-MN,mn-03-128751,9/13/16,07/20/2016,"(40.72824, -73.987836999999999)"
LINK-003235,Manhattan,103,40.728027,-73.987965,A - Link Live,123814,118 2 AVENUE,310 NW,NY-MN,mn-03-123814,9/13/16,07/20/2016,"(40.728026999999997, -73.987965000000003)"
LINK-003236,Manhattan,103,40.728159,-73.988128,A - Link Live,107697,121 2 AVENUE,115 SE,NY-MN,mn-03-107697,2012-12-16,11/12/2016,"(40.728158999999998, -73.988128000000003)"
LINK-003237,Manhattan,103,40.72746,-73.988372,A - Link Live,123273,104 2 AVENUE,311 NW,NY-MN,mn-03-123273,9/19/16,09/02/2016,"(40.727460000000001, -73.988371999999998)"
LINK-003239,Manhattan,103,40.726263,-73.989248,A - Link Live,123260,72 2 AVENUE,321 NW,NY-MN,mn-03-123260,11/16/16,09/02/2016,"(40.726263000000003, -73.989248000000003)"
LINK-003240,Manhattan,103,40.726474,-73.989357,A - Link Live,108323,73 2 AVENUE,104 E,NY-MN,mn-03-108323,2010-07-16,09/02/2016,"(40.726474000000003, -73.989356999999998)"
LINK-003241,Manhattan,103,40.726049,-73.989403,A - Link Live,137382,68 2 AVENUE,299 NW,NY-MN,mn-03-137382,9/15/16,09/02/2016,"(40.726049000000003, -73.989402999999996)"
LINK-003242,Manhattan,103,40.725641,-73.989698,A - Link Live,123820,54 2 AVENUE,304 NW,NY-MN,mn-03-123820,9/15/16,09/02/2016,"(40.725641000000003, -73.989698000000004)"
LINK-003244,Manhattan,103,40.721716,-73.993343,A - Link Live,108238,217 BOWERY,285 W,NY-MN,mn-03-108238,8/19/16,07/22/2016,"(40.721716000000001, -73.993342999999996)"
LINK-003247,Manhattan,102,40.720597,-73.994078,A - Link Live,100727,178 BOWERY,111 E,NY-MN,mn-02-100727,8/19/16,07/12/2016,"(40.720596999999998, -73.994078000000002)"
LINK-003249,Manhattan,103,40.719905,-73.994058,A - Link Live,108589,169 BOWERY,299 NW,NY-MN,mn-03-108589,8/19/16,07/12/2016,"(40.719904999999997, -73.994057999999995)"
LINK-003309,Manhattan,105,40.759971,-73.984342,A - Link Live,133359,201 WEST 48 STREET,208 SW,NY-MN,mn-05-133359,2011-10-16,10/22/2016,"(40.759971, -73.984341999999998)"
LINK-003316,Manhattan,105,40.76164,-73.982996,A - Link Live,122651,780 7 AVENUE,129 SE,NY-MN,mn-05-122651,2011-11-16,10/16/2016,"(40.76164, -73.982996)"
LINK-003352,Manhattan,105,40.762366,-73.982552,A - Link Live,122656,200 WEST 52 STREET,38 NE,NY-MN,mn-05-122656,2011-10-16,10/15/2016,"(40.762366, -73.982551999999998)"
LINK-003357,Manhattan,105,40.764717,-73.980475,A - Link Live,122647,879 7 AVENUE,323 NW,NY-MN,mn-05-122647,11/18/16,10/16/2016,"(40.764716999999997, -73.980474999999998)"
LINK-003358,Manhattan,105,40.764873,-73.980732,A - Link Live,122649,200 WEST 56 STREET,358 N,NY-MN,mn-05-122649,2011-11-16,10/15/2016,"(40.764873000000001, -73.980732000000003)"
LINK-003474,Manhattan,107,40.793311,-73.971047,A - Link Live,120610,718 AMSTERDAM AVENUE,101 E,NY-MN,mn-07-120610,2010-10-16,08/05/2016,"(40.793311000000003, -73.971046999999999)"
LINK-003475,Manhattan,107,40.793527,-73.970893,A - Link Live,107263,720 AMSTERDAM AVENUE,108 E,NY-MN,mn-07-107263,2010-10-16,07/28/2016,"(40.793526999999997, -73.970893000000004)"
LINK-003480,Manhattan,107,40.794604,-73.969837,A - Link Live,120526,755 AMSTERDAM AVE,311 NW,NY-MN,mn-07-120526,2010-07-16,08/01/2016,"(40.794604, -73.969836999999998)"
LINK-003483,Manhattan,107,40.795951,-73.968849,A - Link Live,108008,801 AMSTERDAM AVE,309 NW,NY-MN,mn-07-108008,2010-10-16,07/28/2016,"(40.795951000000002, -73.968849000000006)"
LINK-003835,Manhattan,107,40.79674,-73.968645,A - Link Live,120524,201 WEST 100 STREET,189 S,NY-MN,mn-07-120524,2010-10-16,07/28/2016,"(40.79674, -73.968644999999995)"
LINK-003871,Manhattan,107,40.796374,-73.968542,A - Link Live,108104,817 AMSTERDAM AVENUE,286 W,NY-MN,mn-07-108104,2010-10-16,07/30/2016,"(40.796374, -73.968541999999999)"
LINK-003872,Manhattan,107,40.797181,-73.96823,A - Link Live,120536,836 AMSTERDAM AVENUE,98 E,NY-MN,mn-07-120536,2010-10-16,07/30/2016,"(40.797181000000002, -73.968230000000005)"
LINK-003875,Manhattan,107,40.797828,-73.967752,A - Link Live,120535,856 AMSTERDAM AVE,114 SE,NY-MN,mn-07-120535,2010-10-16,08/01/2016,"(40.797828000000003, -73.967752000000004)"
LINK-003914,Manhattan,107,40.777921,-73.981853,A - Link Live,121346,2060 BROADWAY,61 NE,NY-MN,mn-07-121346,2/27/17,01/27/2017,"(40.777920999999999, -73.981853000000001)"
LINK-003916,Manhattan,107,40.778381,-73.981665,A - Link Live,133413,2096 BROADWAY,311 NW,NY-MN,mn-07-133413,2/27/17,01/27/2017,"(40.778381000000003, -73.981665000000007)"
LINK-003917,Manhattan,107,40.803579,-73.966917,A - Link Live,120400,2820 BROADWAY,,NY-MN,mn-07-120400,6/29/16,06/17/2016,"(40.803578999999999, -73.966916999999995)"
LINK-003918,Manhattan,109,40.804835,-73.965995,A - Link Live,120396,2858 BROADWAY,,NY-MN,mn-09-120396,2007-12-16,06/24/2016,"(40.804834999999997, -73.965995000000007)"
LINK-004661,Manhattan,109,40.827117,-73.949738,A - Link Live,120436,3560 BROADWAY,,NY-MN,mn-09-120436,12/14/16,11/02/2016,"(40.827117000000001, -73.949737999999996)"
LINK-004816,Manhattan,109,40.809965,-73.958889,A - Link Live,120545,1238 AMSTERDAM AVENUE,94 E,NY-MN,mn-09-120545,9/28/16,07/30/2016,"(40.809964999999998, -73.958888999999999)"
LINK-004817,Manhattan,109,40.810163,-73.958744,A - Link Live,142793,1244 AMSTERDAM AVENUE,106 E,NY-MN,mn-09-142793,9/28/16,07/30/2016,"(40.810163000000003, -73.958743999999996)"
LINK-004818,Manhattan,109,40.810378,-73.958321,A - Link Live,142953,1253 AMSTERDAM AVENUE,313 NW,NY-MN,mn-09-142953,9/28/16,08/05/2016,"(40.810378, -73.958320999999998)"
LINK-004821,Manhattan,109,40.813669,-73.95619,A - Link Live,136200,1340 AMSTERDAM AVENUE,115 SE,NY-MN,mn-09-136200,9/13/16,08/19/2016,"(40.813668999999997, -73.956190000000007)"
LINK-005211,Manhattan,109,40.818371,-73.952755,A - Link Live,111948,1500 AMSTERDAM AVENUE,131 SE,NY-MN,mn-09-111948,7/21/16,07/14/2016,"(40.818370999999999, -73.952754999999996)"
LINK-005212,Manhattan,109,40.8196,-73.951942,A - Link Live,120561,502 WEST 136 STREET,30 NE,NY-MN,mn-09-120561,9/30/16,07/10/2016,"(40.819600000000001, -73.951942000000003)"
LINK-005213,Manhattan,109,40.82096,-73.950863,A - Link Live,139323,1580 AMSTERDAM AVENUE,134 SE,NY-MN,mn-09-139323,2012-02-16,10/26/2016,"(40.820959999999999, -73.950862999999998)"
LINK-005216,Manhattan,109,40.822268,-73.949906,A - Link Live,111918,1626 AMSTERDAM AVENUE,117 SE,NY-MN,mn-09-111918,2003-08-17,02/04/2017,"(40.822268000000001, -73.949905999999999)"
LINK-005221,Manhattan,109,40.825947,-73.946952,A - Link Live,120576,1739 AMSTERDAM AVENUE,315 NW,NY-MN,mn-09-120576,7/21/16,07/14/2016,"(40.825946999999999, -73.946951999999996)"
LINK-005400,Staten Island,502,40.572102,-74.112672,A - Link Live,145729,291 NEW DORP LANE,,NY-SI,si-02-145729,2/28/17,02/19/2017,"(40.572102000000001, -74.112672000000003)"
LINK-005402,Staten Island,502,40.57262,-74.113383,A - Link Live,145727,265 NEW DORP LANE,,NY-SI,si-02-145727,2/28/17,12/20/2016,"(40.572620000000001, -74.113382999999999)"
LINK-005407,Staten Island,502,40.563843,-74.116075,A - Link Live,145728,2820 Hylan Blvd,,NY-SI,si-02-145728,2/28/17,12/20/2016,"(40.563842999999999, -74.116074999999995)"
LINK-005422,Bronx,201,40.818886,-73.929213,A - Link Live,145688,518 GERARD AVE,,NY-BX,bx-01-145688,2011-08-16,08/27/2016,"(40.818885999999999, -73.929213000000004)"
LINK-005426,Bronx,204,40.827549,-73.925904,A - Link Live,119160,52 EAST 161 STREET,,NY-BX,bx-04-119160,9/13/16,08/13/2016,"(40.827548999999998, -73.925904000000003)"
LINK-005427,Bronx,204,40.827355,-73.925223,A - Link Live,119159,72 EAST 161 STREET,358 N,NY-BX,bx-04-119159,7/19/16,07/01/2016,"(40.827354999999997, -73.925223000000003)"
LINK-005430,Bronx,204,40.827828,-73.924842,A - Link Live,113552,875 GERARD AVENUE,91 E,NY-BX,bx-04-113552,7/15/16,07/01/2016,"(40.827827999999997, -73.924841999999998)"
LINK-005435,Bronx,204,40.831544,-73.922648,A - Link Live,145687,1049 GERARD AVENUE,,NY-BX,bx-04-145687,1/17/17,08/27/2016,"(40.831544000000001, -73.922647999999995)"
LINK-005579,Bronx,207,40.867038,-73.896537,A - Link Live,145690,30 EAST KINGSBRIDGE ROAD,,NY-BX,bx-08-145690,2011-08-16,08/27/2016,"(40.867038000000001, -73.896536999999995)"
LINK-005582,Bronx,207,40.866588,-73.895654,A - Link Live,145689,60 EAST KINGSBRIDGE ROAD,,NY-BX,bx-08-145689,2011-11-16,08/27/2016,"(40.866588, -73.895653999999993)"
LINK-005877,Manhattan,109,40.824578,-73.952134,A - Link Live,120359,600 WEST 142 STREET,,NY-MN,mn-09-120359,7/20/16,07/08/2016,"(40.824578000000002, -73.952134000000001)"
LINK-005878,Manhattan,109,40.822703,-73.953499,A - Link Live,120370,600 WEST 139 STREET,,NY-MN,mn-09-120370,7/19/16,07/08/2016,"(40.822702999999997, -73.953498999999994)"
LINK-005879,Manhattan,109,40.821918,-73.95331,A - Link Live,120422,551 WEST 138 STREET,,NY-MN,mn-09-120422,7/19/16,07/10/2016,"(40.821917999999997, -73.953310000000002)"
LINK-005882,Manhattan,109,40.814496,-73.95935,A - Link Live,136680,3153 BROADWAY,103 E,NY-MN,mn-09-136680,2008-05-16,07/19/2016,"(40.814495999999998, -73.959350000000001)"
LINK-005931,Manhattan,109,40.805516,-73.966052,A - Link Live,120269,602 WEST 112 STREET,,NY-MN,mn-09-120269,7/20/16,07/02/2016,"(40.805515999999997, -73.966052000000005)"
LINK-005932,Manhattan,111,40.803766,-73.936245,A - Link Live,144674,186 EAST 125 STREET,29 NE,NY-MN,mn-11-144674,2011-02-16,10/15/2016,"(40.803766000000003, -73.936245)"
LINK-006026,Manhattan,111,40.799507,-73.939041,A - Link Live,107943,2166 3RD AVENUE,120 SE,NY-MN,mn-11-107943,6/15/16,05/27/2016,"(40.799506999999998, -73.939041000000003)"
LINK-006027,Manhattan,111,40.791202,-73.944781,A - Link Live,132876,1915 3RD AVENUE,300 NW,NY-MN,mn-11-132876,6/15/16,05/21/2016,"(40.791201999999998, -73.944781000000006)"
LINK-006029,Manhattan,109,40.809412,-73.959029,A - Link Live,120546,1221 AMSTERDAM AVE,,NY-MN,mn-09-120546,9/28/16,07/28/2016,"(40.809412000000002, -73.959029000000001)"
LINK-006031,Manhattan,109,40.817656,-73.953007,A - Link Live,120563,1481 AMSTERDAM AVENUE,,NY-MN,mn-09-120563,9/28/16,08/05/2016,"(40.817655999999999, -73.953006999999999)"
LINK-006032,Manhattan,109,40.827193,-73.946443,A - Link Live,100231,500 WEST 148 STREET,10 N,NY-MN,mn-09-100231,8/22/16,07/19/2016,"(40.827193000000001, -73.946443000000002)"
LINK-006033,Manhattan,109,40.827195,-73.946043,A - Link Live,120573,1781 AMSTERDAM AVE,302 NW,NY-MN,mn-09-120573,2008-10-16,07/19/2016,"(40.827195000000003, -73.946043000000003)"
LINK-006035,Manhattan,109,40.830367,-73.943722,A - Link Live,131062,1881 AMSTERDAM AVE,301 NW,NY-MN,mn-09-131062,2008-08-16,07/19/2016,"(40.830367000000003, -73.943721999999994)"
LINK-006037,Manhattan,112,40.832283,-73.942327,A - Link Live,120463,1941 AMSTERDAM AVE,314 NW,NY-MN,mn-12-120463,7/20/16,07/13/2016,"(40.832282999999997, -73.942327000000006)"
LINK-006038,Manhattan,112,40.832732,-73.942268,A - Link Live,111956,1952 AMSTERDAM AVE,134 SE,NY-MN,mn-12-111956,7/21/16,07/15/2016,"(40.832732, -73.942267999999999)"
LINK-006039,Manhattan,112,40.833447,-73.94174,A - Link Live,120460,1976 AMSTERDAM AVE,,NY-MN,mn-12-120460,7/21/16,07/15/2016,"(40.833447, -73.941739999999996)"
LINK-006040,Manhattan,112,40.833861,-73.941447,A - Link Live,100263,1988 AMSTERDAM AVE,127 SE,NY-MN,mn-12-100263,7/21/16,07/15/2016,"(40.833860999999999, -73.941446999999997)"
LINK-006041,Manhattan,112,40.834247,-73.941163,A - Link Live,111803,2002 AMSTERDAM AVE,133 SE,NY-MN,mn-12-111803,7/21/16,07/15/2016,"(40.834246999999998, -73.941163000000003)"
LINK-006042,Manhattan,112,40.834078,-73.940919,A - Link Live,120458,481 WEST 159 STREET,220 SW,NY-MN,mn-12-120458,7/21/16,07/15/2016,"(40.834077999999998, -73.940918999999994)"
LINK-006043,Manhattan,112,40.834815,-73.940477,A - Link Live,120457,2017 AMSTERDAM AVE,,NY-MN,mn-12-120457,7/21/16,07/15/2016,"(40.834814999999999, -73.940477000000001)"
LINK-006150,Manhattan,107,40.798535,-73.969281,A - Link Live,120273,240 WEST 102 STREET,,NY-MN,mn-07-120273,2008-04-16,07/20/2016,"(40.798535000000001, -73.969280999999995)"
LINK-006197,Brooklyn,303,40.679143,-73.925474,A - Link Live,127093,1805 FULTON STREET,,NY-BK,bk-03-127093,1/17/17,12/22/2016,"(40.679143000000003, -73.925473999999994)"
LINK-006861,Queens,406,40.718602,-73.838184,A - Link Live,124181,110-88 QUEENS BLVD,,NY-QN,qu-06-124181,7/29/16,07/20/2016,"(40.718601999999997, -73.838183999999998)"
LINK-006867,Queens,404,40.73811,-73.885717,A - Link Live,124926,77-20 QUEENS BLVD,,NY-QN,qu-04-124926,2001-12-17,11/19/2016,"(40.738109999999999, -73.885717)"
LINK-007084,Manhattan,105,40.756615,-73.986578,A - Link Live,122095,699 7TH AVENUE,,NY-MN,mn-05-122095,12/30/16,12/18/2016,"(40.756614999999996, -73.986577999999994)"
LINK-007085,Manhattan,107,40.774263,-73.980942,A - Link Live,120936,157 COLUMBUS AVE,309 NW,NY-MN,mn-07-120936,2010-07-16,08/19/2016,"(40.774262999999998, -73.980941999999999)"
LINK-007086,Manhattan,107,40.773657,-73.981404,A - Link Live,120927,147 COLUMBUS AVE,252 W,NY-MN,mn-07-120927,2001-11-17,08/11/2016,"(40.773657, -73.981403999999998)"
LINK-007143,Manhattan,107,40.777227,-73.982777,A - Link Live,121203,222 AMSTERDAM AVE,74 E,NY-MN,mn-07-121203,2008-03-16,07/19/2016,"(40.777227000000003, -73.982776999999999)"
LINK-007144,Manhattan,107,40.77653,-73.983015,A - Link Live,121191,197 AMSTERDAM AVE,301 NW,NY-MN,mn-07-121191,2010-07-16,08/19/2016,"(40.776530000000001, -73.983014999999995)"
LINK-007145,Manhattan,107,40.775999,-73.983247,A - Link Live,138046,155 WEST 68 STREET,214 SW,NY-MN,mn-07-138046,7/21/16,07/15/2016,"(40.775998999999999, -73.983247000000006)"
LINK-007147,Manhattan,107,40.776066,-73.983627,A - Link Live,121193,174 AMSTERDAM AVE,114 SE,NY-MN,mn-07-121193,7/20/16,07/13/2016,"(40.776066, -73.983626999999998)"
LINK-007148,Manhattan,105,40.76666867,-73.9793962,A - Link Live,122633,936 7TH AVENUE,139 SE,NY-MN,mn-05-122633,10/25/16,09/18/2016,"(40.766668665434999, -73.979396196933905)"
LINK-007149,Manhattan,105,40.764006,-73.984742,A - Link Live,122608,888 8 AVENUE,47 NE,NY-MN,mn-05-122608,11/21/16,10/15/2016,"(40.764006000000002, -73.984741999999997)"
LINK-007150,Manhattan,105,40.763611,-73.984976,A - Link Live,122609,870 8TH AVENUE,254 W,NY-MN,mn-05-122609,11/16/16,10/01/2016,"(40.763610999999997, -73.984976000000003)"
LINK-007299,Manhattan,106,40.749301,-73.974818,A - Link Live,138062,201 EAST 40 STREET,194 S,NY-MN,mn-06-138062,2012-09-16,11/19/2016,"(40.749301000000003, -73.974817999999999)"
LINK-007876,Manhattan,108,40.773006,-73.958069,A - Link Live,120996,1349 3 AVENUE,306 NW,NY-MN,mn-08-120996,7/19/16,07/08/2016,"(40.773006000000002, -73.958068999999995)"
LINK-008200,Manhattan,102,40.725335,-74.007554,A - Link Live,123595,284 HUDSON STREET,294 NW,NY-MN,mn-02-123595,12/29/16,11/17/2016,"(40.725335000000001, -74.007553999999999)"
LINK-008211,Manhattan,105,40.748482,-73.996012,A - Link Live,122680,362 8 AVENUE,323 NW,NY-MN,mn-05-122680,12/14/16,09/22/2016,"(40.748482000000003, -73.996011999999993)"
LINK-008221,Manhattan,103,40.729831,-73.986659,A - Link Live,123268,160 2 AVENUE,317 NW,NY-MN,mn-03-123268,10/27/16,09/18/2016,"(40.729830999999997, -73.986659000000003)"
LINK-008224,Manhattan,103,40.731015,-73.988685,A - Link Live,138508,55 3 AVENUE,280 W,NY-MN,mn-03-138508,10/27/16,09/18/2016,"(40.731014999999999, -73.988685000000004)"
LINK-008226,Manhattan,103,40.731777,-73.988136,A - Link Live,133516,83 3 AVENUE,292 W,NY-MN,mn-03-133516,2012-02-16,11/05/2016,"(40.731777000000001, -73.988135999999997)"
LINK-008229,Manhattan,103,40.721425,-73.993454,A - Link Live,100726,211 BOWERY,264 W,NY-MN,mn-03-100726,8/19/16,07/22/2016,"(40.721425000000004, -73.993454)"
LINK-008230,Manhattan,103,40.717924,-73.994956,A - Link Live,108422,113 BOWERY,299 NW,NY-MN,mn-03-108422,9/19/16,08/11/2016,"(40.717923999999996, -73.994956000000002)"
LINK-008245,Manhattan,103,40.730232,-73.989263,A - Link Live,138537,35 3 AVENUE,315 NW,NY-MN,mn-03-138537,10/21/16,09/18/2016,"(40.730232000000001, -73.989262999999994)"
LINK-008295,Manhattan,103,40.719215,-73.98985,A - Link Live,123367,84 DELANCEY STREET,155 SE,NY-MN,mn-03-123367,12/28/16,11/14/2016,"(40.719214999999998, -73.989850000000004)"
LINK-008590,Manhattan,102,40.736387,-73.994742,A - Link Live,123542,18 WEST 14 STREET,38 NE,NY-MN,mn-02-123542,12/28/16,10/01/2016,"(40.736387000000001, -73.994742000000002)"
LINK-008689,Manhattan,105,40.74862,-73.9925,A - Link Live,122442,362 7 AVENUE,108 E,NY-MN,mn-05-122442,2012-09-16,10/08/2016,"(40.748620000000003, -73.992500000000007)"
LINK-008695,Manhattan,105,40.74597,-73.994038,A - Link Live,123662,179 WEST 26 STREET,216 SW,NY-MN,mn-05-123662,1/18/17,11/23/2016,"(40.74597, -73.994038000000003)"
LINK-008837,Manhattan,105,40.744742,-73.985367,A - Link Live,121634,15 EAST 29 STREET,195 S,NY-MN,mn-05-121634,11/21/16,10/29/2016,"(40.744742000000002, -73.985366999999997)"
LINK-008838,Manhattan,105,40.745126,-73.984639,A - Link Live,144509,28 EAST 30 STREET,5 N,NY-MN,mn-05-144509,11/21/16,10/01/2016,"(40.745125999999999, -73.984639000000001)"
LINK-008842,Manhattan,105,40.747118,-73.985242,A - Link Live,121611,1 EAST 32 STREET,197 S,NY-MN,mn-05-121611,2012-09-16,10/01/2016,"(40.747118, -73.985242)"
LINK-009918,Manhattan,105,40.75049,-73.991134,A - Link Live,122446,430 7TH AVENUE,147 SE,NY-MN,mn-05-122446,1/18/17,10/08/2016,"(40.750489999999999, -73.991134000000002)"
LINK-010191,Manhattan,111,40.80043815,-73.94646485,A - Link Live,100223,1413 5 AVENUE,311 NW,NY-MN,mn-11-100223,1/25/17,10/15/2016,"(40.800438146693502, -73.946464845876505)"
LINK-010216,Manhattan,110,40.80732499,-73.95281045,A - Link Live,102771,218 ST NICHOLAS AVENUE,266 W,NY-MN,mn-10-102771,2011-07-16,10/03/2016,"(40.807324994186899, -73.952810448005593)"
LINK-010262,Manhattan,110,40.812661,-73.949502,A - Link Live,111709,2407 FREDERICK DOUGLASS BLVD,96 E,NY-MN,mn-10-111709,11/16/16,10/14/2016,"(40.812660999999999, -73.949501999999995)"
LINK-010287,Bronx,205,40.854352,-73.910235,A - Link Live,113539,70 WEST BURNSIDE AVENUE,10 N,NY-BX,bx-05-113539,1/17/17,12/06/2016,"(40.854351999999999, -73.910235)"
LINK-010317,Bronx,205,40.853764,-73.907899,A - Link Live,111414,8 WEST BURNSIDE AVENUE,347 N,NY-BX,bx-05-111414,1/17/17,12/06/2016,"(40.853763999999998, -73.907899)"
LINK-010341,Manhattan,110,40.80943998,-73.95184705,A - Link Live,142812,2307 FREDERICK DOUGLASS BLVD,116 SE,NY-MN,mn-10-142812,10/14/16,09/17/2016,"(40.8094399844816, -73.951847048004396)"
LINK-010346,Manhattan,110,40.8092687,-73.95170911,A - Link Live,142813,2306 FREDERICK DOUGLASS BLVD,294 NW,NY-MN,mn-10-142813,10/14/16,09/24/2016,"(40.809268699902802, -73.951709110754194)"
LINK-010349,Manhattan,110,40.8119676,-73.94590297,A - Link Live,142513,2197 ADAM CLAYTON POWELL JR BOULEVARD,250 W,NY-MN,mn-10-142513,12/16/16,10/29/2016,"(40.811967600588602, -73.9459029693042)"
LINK-010356,Manhattan,110,40.81487,-73.947892,A - Link Live,142855,2480 FREDERICK DOUGLASS BOULEVARD,305 NW,NY-MN,mn-10-142855,10/25/16,09/17/2016,"(40.814869999999999, -73.947891999999996)"
LINK-010357,Manhattan,110,40.80898845,-73.95213,A - Link Live,142814,2293 FREDERICK DOUGLASS BLVD,126 SE,NY-MN,mn-10-142814,2011-02-16,10/14/2016,"(40.808988449936201, -73.952129999999997)"
LINK-010367,Manhattan,108,40.77823256,-73.95282089,A - Link Live,128743,228 EAST 86 STREET,8 N,NY-MN,mn-08-128743,2002-01-17,11/04/2016,"(40.7782325572798, -73.952820892660796)"
LINK-010406,Manhattan,110,40.81002831,-73.95142478,A - Link Live,142632,2327 FREDERICK DOUGLASS BLVD,114 SE,NY-MN,mn-10-142632,10/14/16,09/24/2016,"(40.810028307436298, -73.951424783585907)"
LINK-010460,Bronx,201,40.81795032,-73.91532262,A - Link Live,109413,2939 3 AVENUE,121 SE,NY-BX,bx-01-109413,12/22/16,10/22/2016,"(40.817950321600101, -73.915322620739502)"
LINK-010750,Manhattan,102,40.73027063,-74.00662617,A - Link Live,123600,1 ST LUKES PLACE,180 S,NY-MN,mn-02-123600,1/26/17,11/13/2016,"(40.730270626602902, -74.006626171225903)"
LINK-010797,Manhattan,107,40.79271443,-73.97151465,A - Link Live,120611,700 AMSTERDAM AVE,108 E,NY-MN,mn-07-120611,12/20/16,11/02/2016,"(40.7927144283329, -73.971514649099504)"
LINK-010802,Manhattan,103,40.721773,-73.989421,A - Link Live,123464,70 STANTON ST,205 SW,NY-MN,mn-03-123464,2001-06-17,11/17/2016,"(40.721772999999999, -73.989420999999993)"
LINK-010843,Manhattan,102,40.732309,-74.006427,A - Link Live,123611,482 HUDSON STREET,303 NW,NY-MN,mn-02-123611,1/18/17,11/05/2016,"(40.732309000000001, -74.006427000000002)"
LINK-010872,Manhattan,103,40.71950406,-73.98947529,A - Link Live,137963,122B ORCHARD ST,331 NW,NY-MN,mn-03-137963,12/28/16,11/04/2016,"(40.719504063487697, -73.989475293451605)"
LINK-010890,Bronx,201,40.81675428,-73.92296583,A - Link Live,116415,522 MORRIS AVENUE,,NY-BX,bx-01-116415,2003-06-17,01/21/2017,"(40.816754278382497, -73.922965834626297)"
LINK-010897,Manhattan,111,40.80077714,-73.94623088,A - Link Live,120070,1421 5 AVENUE,34 NE,NY-MN,mn-11-120070,1/25/17,10/15/2016,"(40.800777137997002, -73.946230882336707)"
LINK-010933,Manhattan,107,40.802979,-73.967859,A - Link Live,120267,300 West 108th ST,3N,NY-MN,mn-07-120267,10/25/16,10/08/2016,"(40.802979000000001, -73.967859000000004)"
LINK-010934,Manhattan,107,40.792059,-73.97203648,A - Link Live,121100,674 AMSTERDAM AVE,133 SE,NY-MN,mn-07-121100,2002-07-17,12/01/2016,"(40.792058995523497, -73.972036477024204)"
LINK-010942,Manhattan,109,40.823361,-73.948844,A - Link Live,120570,1661 AMSTERDAM AVENUE,,NY-MN,mn-09-120570,10/31/16,10/14/2016,"(40.823360999999998, -73.948843999999994)"
LINK-011295,Manhattan,112,40.835729,-73.940075,A - Link Live,120469,2048 AMSTERDAM AVENUE,97 E,NY-MN,mn-12-120469,2012-02-16,10/22/2016,"(40.835729000000001, -73.940074999999993)"
LINK-011315,Manhattan,111,40.79633363,-73.93806737,A - Link Live,120199,2240 2 AVENUE,324 NW,NY-MN,mn-11-120199,2/17/17,12/18/2016,"(40.796333630423803, -73.938067370673906)"
LINK-011337,Manhattan,111,40.80016554,-73.94494845,A - Link Live,120180,25 EAST 116 STREET,,NY-MN,mn-11-120180,1/25/17,10/15/2016,"(40.800165535795003, -73.944948449073706)"
LINK-012528,Manhattan,106,40.73154235,-73.98274912,A - Link Live,123285,353 E 14 ST,241 SW,NY-MN,mn-06-123285,2002-01-17,11/05/2016,"(40.731542348409903, -73.982749123071699)"
LINK-011358,Manhattan,112,40.834974,-73.945436,A - Link Live,120347,3 EDWARD MORGAN PLACE,296 NW,NY-MN,mn-12-120347,12/20/16,11/19/2016,"(40.834974000000003, -73.945436000000001)"
LINK-011425,Bronx,201,40.81950591,-73.91373186,A - Link Live,123216,3015 3 AVENUE,131 SE,NY-BX,bx-01-123216,12/22/16,10/29/2016,"(40.8195059064684, -73.913731855372703)"
LINK-011438,Manhattan,112,40.833239,-73.945118,A - Link Live,120451,580 WEST 156 STREET,,NY-MN,mn-12-120451,2002-01-17,12/20/2016,"(40.833238999999999, -73.945117999999994)"
LINK-011461,Bronx,201,40.81887742,-73.91427215,A - Link Live,123217,2991 3 AVENUE,222 SW,NY-BX,bx-01-123217,2003-06-17,01/21/2017,"(40.818877420014502, -73.914272152924894)"
LINK-011473,Manhattan,110,40.80237109,-73.95676792,A - Link Live,119982,2084 FREDERICK DOUGLASS BLVD,,NY-MN,mn-10-119982,12/14/16,11/17/2016,"(40.802371089512, -73.956767923040999)"
LINK-011474,Manhattan,110,40.80301954,-73.95647694,A - Link Live,119980,2109 FREDERICK DOUGLASS BLVD,,NY-MN,mn-10-119980,10/19/16,09/17/2016,"(40.803019543123398, -73.956476935429293)"
LINK-011566,Manhattan,106,40.73197822,-73.98378868,A - Link Live,123801,325 E 14 ST,255 W,NY-MN,mn-06-123801,11/18/16,10/01/2016,"(40.731978218295303, -73.983788680964096)"
LINK-011588,Bronx,205,40.853933,-73.907502,A - Link Live,119613,1 WEST BURNSIDE AVENUE,,,bx-05-119613,2001-12-17,11/23/2016,"(40.853932999999998, -73.907501999999994)"
LINK-011595,Brooklyn,308,40.676752,-73.949935,A - Link Live,127047,632 NOSTRAND AVENUE,,NY-BK,bk-08-127047,2003-08-17,02/17/2017,"(40.676752, -73.949934999999996)"
LINK-011604,Brooklyn,308,40.676976,-73.949916,A - Link Live,127034,628 NOSTRAND AVENUE,,NY-BK,bk-08-127034,2003-07-17,02/17/2017,"(40.676976000000003, -73.949916000000002)"
LINK-011635,Brooklyn,309,40.666203,-73.950916,A - Link Live,127020,926 NOSTRAND AVENUE,,NY-MN,bk-09-127020,2003-01-17,02/03/2017,"(40.666203000000003, -73.950916000000007)"
LINK-011729,Brooklyn,308,40.675965,-73.950008,A - Link Live,145032,656 NOSTRAND AVENUE,,NY-BK,bk-08-145032,2003-08-17,02/03/2017,"(40.675964999999998, -73.950007999999997)"
LINK-011761,Brooklyn,308,40.670115,-73.950627,A - Link Live,126469,529 EASTERN PARKWAY,,NY-BK,bk-08-126469,2/23/17,02/03/2017,"(40.670115000000003, -73.950626999999997)"
LINK-011768,Brooklyn,308,40.670147,-73.950397,A - Link Live,127030,791 NOSTRAND AVENUE,,NY-BK,bk-08-127030,2/23/17,02/03/2017,"(40.670147, -73.950396999999995)"
LINK-011824,Manhattan,110,40.81741077,-73.94257556,A - Link Live,119949,201 W 138 ST,,NY-MN,mn-10-119949,3/13/17,02/11/2017,"(40.8174107745659, -73.942575555871898)"
LINK-011861,Bronx,205,40.853842,-73.909388,A - Link Live,119610,48 WEST BURNSIDE AVENUE,,NY-BX,bx-05-119610,2002-08-17,01/25/2017,"(40.853842, -73.909388000000007)"
LINK-011877,Bronx,201,40.819568,-73.913388,A - Link Live,123215,3012 3 AVENUE,,NY-BX,bx-01-123215,12/22/16,10/29/2016,"(40.819567999999997, -73.913387999999998)"
LINK-011971,Manhattan,110,40.818897,-73.944659,A - Link Live,119890,2604 FREDERICK DOUGLASS BLVD,,NY-MN,mn-10-119890,10/21/16,10/08/2016,"(40.818897, -73.944659000000001)"
LINK-011980,Manhattan,109,40.829657,-73.948426,A - Link Live,120355,600 WEST 150 STREET,,NY-MN,mn-09-120355,12/16/16,11/14/2016,"(40.829656999999997, -73.948425999999998)"
LINK-011982,Manhattan,105,40.743381,-73.985963,A - Link Live,121626,63 Madison Ave,208 SW,NY-MN,mn-05-121626,2012-09-16,11/19/2016,"(40.743380999999999, -73.985962999999998)"
LINK-012026,Manhattan,112,40.835586,-73.939589,A - Link Live,120468,450 WEST 162 STREET,28 NE,NY-MN,mn-12-120468,2012-12-16,11/19/2016,"(40.835585999999999, -73.939588999999998)"
LINK-012080,Bronx,201,40.81669823,-73.91651085,A - Link Live,118956,2882 3 AVENUE,,NY-BX,bx-01-118956,12/22/16,10/22/2016,"(40.816698227602501, -73.916510849460195)"
LINK-012163,Manhattan,111,40.80007,-73.946762,A - Link Live,100200,1403 5 AVENUE,320 NW,NY-MN,mn-11-100200,1/25/17,10/15/2016,"(40.800069999999998, -73.946762000000007)"
LINK-012235,Manhattan,103,40.716649,-73.997648,A - Link Live,133426,178 Canal St,16 N,NY-MN,mn-03-133426,12/14/16,09/14/2016,"(40.716648999999997, -73.997647999999998)"
LINK-012236,Manhattan,108,40.7781432,-73.95259267,A - Link Live,134746,238 EAST 86 STREET,,NY-MN,mn-08-134746,2002-01-17,11/04/2016,"(40.778143195317597, -73.952592668037994)"
LINK-012249,Manhattan,102,40.716869,-73.997578,A - Link Live,133430,183 Canal St,221 SW,NY-MN,mn-02-133430,12/15/16,09/14/2016,"(40.716869000000003, -73.997578000000004)"
LINK-012317,Manhattan,103,40.72048576,-73.98908398,A - Link Live,137173,145 ORCHARD ST,126 SE,NY-MN,mn-03-137173,12/28/16,11/17/2016,"(40.720485759273899, -73.989083981971206)"
LINK-012510,Manhattan,107,40.77496988,-73.98107921,A - Link Live,137400,130 WEST 68 STREET,351 N,NY-MN,mn-07-137400,11/23/16,10/22/2016,"(40.774969882223701, -73.981079213700497)"
LINK-012858,Manhattan,105,40.74598598,-73.98449219,A - Link Live,121632,21 EAST 31 STREET,291 W,NY-MN,mn-05-121632,2012-09-16,11/19/2016,"(40.745985978052197, -73.9844921948104)"
LINK-012881,Bronx,205,40.853881,-73.908662,A - Link Live,123185,23 WEST BURNSIDE AVE,169 S,NY-BX,bx-05-123185,2001-12-17,12/06/2016,"(40.853881000000001, -73.908662000000007)"
LINK-012925,Queens,402,40.742218,-73.918999,A - Link Live,124987,45-23 GREENPOINT AVENUE,,NY-QNS,qu-02-124987,2003-09-17,02/25/2017,"(40.742218000000001, -73.918998999999999)"
LINK-012975,Queens,402,40.742183,-73.918734,A - Link Live,124996,46-02 GREENPOINT AVENUE,347 N,NY-QNS,qu-02-124996,2003-09-17,02/25/2017,"(40.742182999999997, -73.918734000000001)"
LINK-013063,Manhattan,110,40.820797,-73.943287,A - Link Live,119886,2660 8 AVENUE,,NY-MN,mn-10-119886,12/16/16,11/14/2016,"(40.820796999999999, -73.943286999999998)"
LINK-013095,Brooklyn,308,40.674266,-73.950234,A - Link Live,127037,794 PROSPECT PLACE,,NY-BK,bk-08-127037,2003-03-17,02/17/2017,"(40.674266000000003, -73.950233999999995)"
LINK-013111,Manhattan,110,40.807779,-73.945253,A - Link Live,123361,83 WEST 125 STREET,,NY-MN,mn-10-123361,12/16/16,11/05/2016,"(40.807778999999996, -73.945252999999994)"
LINK-013122,Manhattan,110,40.82160025,-73.94271036,A - Link Live,119898,2690 FREDERICK DOUGLASS BLVD,28 NE,NY-MN,mn-10-119898,2/22/17,01/25/2017,"(40.821600246267103, -73.942710358490899)"
LINK-013157,Manhattan,110,40.80199987,-73.94922176,A - Link Live,138528,99 WEST 116 STREET,188 S,NY-MN,mn-10-138528,2002-06-17,12/21/2016,"(40.801999865043101, -73.949221761214204)"
LINK-013160,Manhattan,110,40.80234688,-73.95697301,A - Link Live,136677,2079 FREDRICK DOUGLASS BLVD,73 E,NY-MN,mn-10-136677,10/31/16,10/08/2016,"(40.802346882908601, -73.956973005146295)"
LINK-013162,Manhattan,110,40.81642773,-73.94260644,A - Link Live,137182,2321 ADAM CLAYTON POWELL JR BOULEVARD,286 W,NY-MN,mn-10-137182,2001-11-17,10/29/2016,"(40.816427732424202, -73.942606440049801)"
LINK-013169,Manhattan,110,40.820122,-73.94377691,A - Link Live,137208,2640 FREDERICK DOUGLASS BOULEVARD,305 NW,NY-MN,mn-10-137208,12/16/16,11/17/2016,"(40.820122000548203, -73.943776911323297)"
LINK-013170,Manhattan,110,40.815379,-73.947511,A - Link Live,138120,2491 FREDERICK DOUGLASS BOULEVARD,127 SE,NY-MN,mn-10-138120,11/16/16,10/26/2016,"(40.815379, -73.947511000000006)"
LINK-013171,Manhattan,110,40.81069,-73.950658,A - Link Live,137181,2346 FREDERICK DOUGLASS BLVD,304 NW,NY-MN,mn-10-137181,10/14/16,09/24/2016,"(40.810690000000001, -73.950658000000004)"
LINK-013172,Manhattan,110,40.805615,-73.950557,A - Link Live,137852,1995 ADAM CLAYTON POWELL JR BOULEVARD,,NY-MN,mn-10-137852,1/20/17,12/06/2016,"(40.805615000000003, -73.950557000000003)"
LINK-013212,Brooklyn,308,40.673527,-73.950078,A - Link Live,127039,695 NOSTRAND AVENUE,,NY-BK,bk-08-127039,2003-08-17,02/17/2017,"(40.673527, -73.950078000000005)"
LINK-013228,Manhattan,110,40.80921222,-73.94857244,A - Link Live,119952,201 WEST 125 STREET,308 NW,NY-MN,mn-10-119952,12/16/16,10/26/2016,"(40.809212221332302, -73.948572435450103)"
LINK-013234,Manhattan,110,40.80881517,-73.94810854,A - Link Live,120049,166 WEST 125 STREET,104 E,NY-MN,mn-10-120049,2001-09-17,11/14/2016,"(40.808815166774899, -73.948108535497497)"
LINK-013237,Bronx,205,40.854764,-73.911439,A - Link Live,119566,1999 UNIVERSITY AVENUE,134 SE,NY-BX,bx-05-119566,1/17/17,12/22/2016,"(40.854764000000003, -73.911439000000001)"
LINK-013313,Bronx,201,40.81716063,-73.91623913,A - Link Live,118955,2901 3 AVENUE,141 SE,NY-BX,bx-01-118955,12/22/16,10/22/2016,"(40.817160633239702, -73.916239128959702)"
LINK-013346,Manhattan,110,40.816691,-73.946553,A - Link Live,119880,2527 FREDERICK DOUGLASS BLVD,129 SE,NY-MN,mn-10-119880,10/31/16,10/14/2016,"(40.816690999999999, -73.946552999999994)"
LINK-013347,Manhattan,110,40.816298,-73.946558,A - Link Live,119881,2534 FREDERICK DOUGLASS BLVD,300 NW,NY-MN,mn-10-119881,2012-02-16,10/29/2016,"(40.816298000000003, -73.946557999999996)"
LINK-013348,Manhattan,110,40.822924,-73.941723,A - Link Live,119893,2730 FREDERICK DOUGLASS BLVD,219 SW,NY-MN,mn-10-119893,10/19/16,10/03/2016,"(40.822924, -73.941722999999996)"
LINK-013349,Manhattan,110,40.809019,-73.948691,A - Link Live,119951,200 DR MARTIN LUTHER KING BLVD,356 N,NY-MN,mn-10-119951,12/16/16,11/14/2016,"(40.809018999999999, -73.948690999999997)"
LINK-013357,Manhattan,110,40.81100102,-73.95073979,A - Link Live,120002,2353 FREDERICK DOUGLASS BLVD,116 SE,NY-MN,mn-10-120002,3/13/17,12/22/2016,"(40.811001022943898, -73.950739785241396)"
LINK-013359,Manhattan,110,40.807814,-73.945833,A - Link Live,120024,100 WEST 125 STREET,350 N,NY-MN,mn-10-120024,2001-09-17,11/14/2016,"(40.807814, -73.945832999999993)"
LINK-013360,Manhattan,110,40.808939,-73.948011,A - Link Live,120039,163 WEST 125 STREET,169 S,NY-MN,mn-10-120039,12/20/16,10/26/2016,"(40.808939000000002, -73.948010999999994)"
LINK-013361,Manhattan,110,40.82219963,-73.94219796,A - Link Live,119897,2710 FREDERICK DOUGLASS BLVD,319 NW,NY-MN,mn-10-119897,10/19/16,10/03/2016,"(40.822199626644903, -73.942197962703005)"
LINK-013381,Manhattan,110,40.811325,-73.952053,A - Link Live,120621,320 ST. NICHOLAS AVE,287 W,NY-MN,mn-10-120621,12/20/16,10/29/2016,"(40.811324999999997, -73.952053000000006)"
LINK-013458,Brooklyn,309,40.66072922,-73.95076897,A - Link Live,127021,1106 NOSTRAND AVENUE,66 NE,NY-BK,bk-09-127021,2003-07-17,02/17/2017,"(40.660729220742901, -73.950768967525505)"
LINK-013459,Brooklyn,309,40.65773707,-73.95045012,A - Link Live,127022,1208 NOSTRAND AVENUE,51 NE,NY-BK,bk-09-127022,2003-07-17,02/17/2017,"(40.657737067692203, -73.950450124992301)"
LINK-013489,Brooklyn,308,40.6782681,-73.94979894,A - Link Live,127044,590 NOSTRAND AVENUE,82 E,NY-BK,bk-08-127044,2003-01-17,02/03/2017,"(40.678268099947701, -73.949798940953798)"
LINK-013521,Queens,406,40.720244,-73.844641,A - Link Live,124227,107-02 71 AVENUE,307 NW,NY-QNS,qu-06-124227,2003-09-17,02/25/2017,"(40.720244000000001, -73.844640999999996)"
LINK-013522,Queens,406,40.720017,-73.844787,A - Link Live,124230,106-20 71 AVENUE,312 NW,NY-QNS,qu-06-124230,2003-09-17,02/25/2017,"(40.720016999999999, -73.844786999999997)"
LINK-013607,Queens,406,40.7225,-73.850777,A - Link Live,124234,70-25 YELLOWSTONE BOULEVARD,351 N,NY-QNS,qu-06-124234,2003-09-17,02/25/2017,"(40.722499999999997, -73.850776999999994)"
LINK-013616,Queens,402,40.741854,-73.919696,A - Link Live,124993,45-06 GREENPOINT AVENUE,337 NW,NY-BK,qu-02-124993,2003-09-17,02/25/2017,"(40.741853999999996, -73.919696000000002)"
LINK-013724,Manhattan,106,40.749613,-73.975528,A - Link Live,121529,155 EAST 40 STREET,197 S,NY-MN,mn-06-121529,2012-05-16,11/13/2016,"(40.749612999999997, -73.975527999999997)"
LINK-013750,Manhattan,105,40.74653202,-73.98408408,A - Link Live,121640,24 EAST 32 STREET,344 N,NY-MN,mn-05-121640,2002-06-17,11/19/2016,"(40.746532022275098, -73.984084077922404)"
LINK-013805,Manhattan,105,40.75430924,-73.9883248,A - Link Live,121991,550 7 AVE,1 N,NY-MN,mn-05-121991,1/18/17,11/12/2016,"(40.7543092395846, -73.988324802950501)"
LINK-013872,Manhattan,105,40.74917165,-73.99184542,A - Link Live,122445,383 7 AVENUE,342 N,NY-MN,mn-05-122445,2002-07-17,11/12/2016,"(40.749171652351002, -73.991845417816506)"
LINK-013873,Manhattan,105,40.747904,-73.992745,A - Link Live,122453,341 7 AVENUE,324 NW,NY-MN,mn-05-122453,12/16/16,10/22/2016,"(40.747903999999998, -73.992744999999999)"
LINK-013905,Manhattan,105,40.748776,-73.988682,A - Link Live,122768,899 6 AVENUE,154 SE,NY-MN,mn-05-122768,2011-11-16,10/22/2016,"(40.748775999999999, -73.988681999999997)"
LINK-013956,Manhattan,102,40.732393,-73.991399,A - Link Live,123086,799 BROADWAY,71 E,NY-MN,mn-02-123086,2011-10-16,10/15/2016,"(40.732393000000002, -73.991399000000001)"
LINK-013965,Manhattan,105,40.735187,-73.989871,A - Link Live,123158,18 UNION SQUARE EAST,272 W,NY-MN,mn-05-123158,11/21/16,10/08/2016,"(40.735187000000003, -73.989870999999994)"
LINK-013970,Manhattan,103,40.7322409,-73.98511773,A - Link Live,123282,223 2 AVE,226 SW,NY-MN,mn-03-123282,10/25/16,10/01/2016,"(40.7322409032314, -73.985117725066502)"
LINK-013973,Manhattan,106,40.73298895,-73.98615221,A - Link Live,123287,223 E 14 ST,264 W,NY-MN,mn-06-123287,10/19/16,10/01/2016,"(40.732988951848903, -73.986152214114497)"
LINK-014014,Manhattan,103,40.73151927,-73.98325975,A - Link Live,123800,344 E 14 ST,33 NE,NY-MN,mn-03-123800,12/16/16,10/16/2016,"(40.731519273336602, -73.983259751597501)"
LINK-014021,Bronx,201,40.81848999,-73.91467268,A - Link Live,123214,2969 3 AVENUE,142 SE,NY-BX,bx-01-123214,12/28/16,10/22/2016,"(40.818489990639897, -73.914672682060399)"
LINK-014052,Brooklyn,308,40.670647,-73.950355,A - Link Live,126832,777 NOSTRAND AVENUE,,NY-BK,bk-08-126832,2/23/17,02/03/2017,"(40.670647000000002, -73.950355000000002)"
LINK-014190,Manhattan,102,40.720461,-73.994273,A - Link Live,107871,18 DELANCEY STREET,,NY-MN,mn-03-107871,10/28/16,10/16/2016,"(40.720461, -73.994273000000007)"
LINK-014226,Manhattan,103,40.71711156,-73.99911382,A - Link Live,108162,210 CANAL ST,38 NE,NY-MN,mn-03-108162,12/15/16,10/19/2016,"(40.717111559133897, -73.999113822777105)"
LINK-014263,Manhattan,103,40.716355,-73.991198,A - Link Live,108607,45 ORCHARD STREET,143 SE,NY-MN,mn-03-108607,2001-09-17,11/13/2016,"(40.716355, -73.991197999999997)"
LINK-014316,Manhattan,102,40.734036,-73.991208,A - Link Live,133831,62 EAST 13 STREET,,NY-MN,mn-02-133831,2011-10-16,10/15/2016,"(40.734036000000003, -73.991208)"
LINK-014399,Manhattan,110,40.80260346,-73.95678833,A - Link Live,131051,2097 FREDERICK DOUGLASS BLVD,83 E,NY-MN,mn-10-131051,10/20/16,09/24/2016,"(40.802603460899199, -73.956788330717501)"
LINK-014438,Manhattan,103,40.73273885,-73.98611362,A - Link Live,123803,226 E 14 ST,,NY-MN,mn-03-123803,10/28/16,10/16/2016,"(40.732738846336296, -73.986113618234597)"
LINK-014444,Manhattan,110,40.815696,-73.947002,A - Link Live,119882,2504 FREDERICK DOUGLASS BLVD,,NY-MN,mn-10-119882,10/25/16,10/03/2016,"(40.815696000000003, -73.947001999999998)"
LINK-014483,Bronx,201,40.817446,-73.915574,A - Link Live,118942,2922 3 AVENUE,322 NW,NY-BX,bx-01-118942,12/28/16,10/22/2016,"(40.817445999999997, -73.915574000000007)"
LINK-014492,Bronx,201,40.81724931,-73.91585087,A - Link Live,118944,2914 3 AVENUE,330 NW,NY-BX,bx-01-118944,12/22/16,10/22/2016,"(40.817249306921298, -73.915850873884494)"
LINK-014639,Manhattan,107,40.795399,-73.969254,A - Link Live,120525,765 AMSTERDAM AVENUE,,NY-MN,mn-07-120525,11/23/16,10/22/2016,"(40.795399000000003, -73.969254000000006)"
LINK-014642,Manhattan,110,40.804053,-73.952154,A - Link Live,119959,1940 ADAM CLAYTON POWELL JR BOULEVARD,126 SE,NY-MN,mn-10-119959,2001-09-17,10/29/2016,"(40.804053000000003, -73.952153999999993)"
LINK-014643,Manhattan,110,40.805951,-73.950756,A - Link Live,119961,2010 ADAM CLAYTON POWELL JR BOULEVARD,107 E,NY-MN,mn-10-119961,2001-09-17,10/22/2016,"(40.805951, -73.950755999999998)"
LINK-014649,Manhattan,110,40.816781,-73.942845,A - Link Live,119948,2340 ADAM CLAYTON POWELL JR BOULEVARD,112 E,NY-MN,mn-10-119948,2001-09-17,11/05/2016,"(40.816780999999999, -73.942845000000005)"
LINK-014650,Manhattan,110,40.814156,-73.944756,A - Link Live,119944,2260 ADAM CLAYTON POWELL JR BOULEVARD,,NY-MN,mn-10-119944,12/16/16,10/26/2016,"(40.814155999999997, -73.944755999999998)"
LINK-014651,Manhattan,110,40.812611,-73.945458,A - Link Live,120046,2215 ADAM CLAYTON POWELL JR BOULEVARD,299 NW,NY-MN,mn-10-120046,2/23/17,12/06/2016,"(40.812610999999997, -73.945458000000002)"
LINK-014655,Manhattan,110,40.806247,-73.95009,A - Link Live,120042,2013 ADAM CLAYTON POWELL JR BOULEVARD,,NY-MN,mn-10-120042,2001-11-17,10/15/2016,"(40.806246999999999, -73.950090000000003)"
LINK-014662,Manhattan,110,40.822308,-73.942445,A - Link Live,119896,2711 FREDERICK DOUGLASS BOULEVARD,138 SE,NY-MN,mn-10-119896,12/16/16,11/17/2016,"(40.822308, -73.942445000000006)"
LINK-018103,Brooklyn,303,40.679506,-73.955431,A - Link Live,145750,560 Franklin Ave,,,bk-03-145750,3/13/17,02/27/2017,"(40.679506000000003, -73.955431000000004)"
LINK-018382,Staten Island,502,40.57179163,-74.10863081,A - Link Live,145730,2435 HYLAN BOULEVARD,,,si-02-145730,2/28/17,02/19/2017,"(40.571791630900599, -74.108630811623598)"
LINK-018383,Staten Island,502,40.57286484,-74.10756336,A - Link Live,145734,2381 HYLAN BOULEVARD,,,si-02-145734,2/28/17,02/19/2017,"(40.5728648413616, -74.107563364826703)"
LINK-018384,Staten Island,502,40.57347607,-74.10693384,A - Link Live,145737,2361 HYLAN BOULEVARD,,,si-02-145737,2/28/17,02/19/2017,"(40.573476072870598, -74.1069338366122)"
LINK-018386,Staten Island,502,40.57681455,-74.10357211,A - Link Live,145731,2205 HYLAN BOULEVARD,,,si-02-145731,2/28/17,02/19/2017,"(40.576814553889598, -74.103572106845604)"
LINK-018388,Staten Island,502,40.57963572,-74.10065371,A - Link Live,145736,2083 Hylan Blvd,,,si-02-145736,2/28/17,02/19/2017,"(40.579635722347497, -74.100653709118305)"
LINK-018405,Staten Island,502,40.59771508,-74.08382835,A - Link Live,145732,1232 Hylan Blvd,,,si-02-145732,2/28/17,02/19/2017,"(40.597715078535202, -74.083828345887497)"
LINK-018406,Staten Island,502,40.59800199,-74.08305039,A - Link Live,145735,1220 Hylan Blvd,,,si-02-145735,2/28/17,02/19/2017,"(40.598001994381299, -74.083050385855003)"
LINK-018407,Staten Island,502,40.58130926,-74.11201537,A - Link Live,145733,2110 Richmond Rd,,,si-02-145733,2003-02-17,02/19/2017,"(40.581309259206897, -74.112015365225602)"
LINK-019377,Staten Island,502,40.564789,-74.115318,A - Link Live,145738,2754 Hylan Blvd,,,si-02-145738,2/28/17,02/19/2017,"(40.564788999999998, -74.115318000000002)"
